inspection_id,address,latitude,longitude,location,city,state,zip
1538026,3358 W FOSTER AVE,41.97580062815588,-87.71349867231145,"(41.97580062815588, -87.71349867231145)",CHICAGO,IL,60659
2104764,4619 S Wolcott AVE,41.8096282,-87.6719638,"(41.8096282,-87.6719638)",CHICAGO,IL,60609
2104239,6650 S Ellis AVE,41.7742214,-87.6012716,"(41.7742214,-87.6012716)",CHICAGO,IL,60637
2584686,1401 S CALIFORNIA AVE,41.8622623,-87.6951383,"(41.8622623,-87.6951383)",CHICAGO,IL,60608
2556523,135 N KEDZIE,41.88390509704504,-87.70605925083947,"(41.88390509704504, -87.70605925083947)",CHICAGO,IL,60612
1497852,5101-5109 S HALSTED ST,41.80154012834072,-87.64519698905924,"(41.80154012834072, -87.64519698905924)",CHICAGO,IL,60609
1496849,1401 S CALIFORNIA AVE,41.8622623,-87.6951383,"(41.8622623,-87.6951383)",CHICAGO,IL,60608
2569647,6040 N Kilpatrick AVE,41.9912004,-87.7464722,"(41.9912004,-87.7464722)",CHICAGO,IL,60646
1395621,4000 N O'HARE FIELD,41.9802588,-87.9089858,"(41.9802588,-87.9089858)",CHICAGO,IL,60666
1199025,2300 N Childrens Plaza PLZ BLDG,41.9203468,-87.6433139,"(41.9203468,-87.6433139)",CHICAGO,IL,60614
2572252,3625 S Hoyne,41.8276402,-87.6773181,"(41.8276402,-87.6773181)",CHICAGO,IL,60609
1305295,6011 S Rockwell AVE,41.7840433,-87.6883007,"(41.7840433,-87.6883007)",CHICAGO,IL,60629
2602225,7141 S Morgan ST,41.7636974,-87.6486262,"(41.7636974,-87.6486262)",CHICAGO,IL,60621
1566818,1401 S CALIFORNIA AVE,41.8622623,-87.6951383,"(41.8622623,-87.6951383)",CHICAGO,IL,60608
1290245,3625 S Hoyne,41.8276402,-87.6773181,"(41.8276402,-87.6773181)",CHICAGO,IL,60609
1279258,1401 S CALIFORNIA AVE,41.8622623,-87.6951383,"(41.8622623,-87.6951383)",CHICAGO,IL,60608
1285562,2920 S WENWORTH STE 2,41.84055,-87.6318954,"(41.84055,-87.6318954)",CHICAGO,IL,60616
671188,2646 N MILWAUKEE AVE AVE,41.8915991,-87.6483887,"Milwaukee Ave & Grand Ave, North Milwaukee Avenue, River West, Chicago, West Chicago Township, Cook County, Illinois, 60661, United States of America",CHICAGO,IL,60661
1214556,249 PORTER LN,41.7142788,-88.0621702,"249, Porter Lane, Winston Village, Barbers Corners, Bolingbrook, Will County, Illinois, 60440, United States of America",BOLINGBROOK,IL,60440
2497865,1700 N THROOP ST,41.9139941,-87.6623086,"1700, North Throop Street, Chicago, West Chicago Township, Cook County, Illinois, 60622, United States of America",CHICAGO,IL,60622
635002,22351 N PINE RIDGE CT,41.4834854,-87.810493,"22351, North Pine Ridge Court, Frankfort, Will County, Illinois, 60423, United States of America",FRANKFORT,IL,60423
529344,5114 S Elizabeth ST,41.8000688,-87.6565647,"(41.8000688,-87.6565647)",CHICAGO,IL,60609
2581447,7141 S Morgan ST,41.7636974,-87.6486262,"(41.7636974,-87.6486262)",CHICAGO,IL,60621
580245,4000 N OHARE AIRPORT,41.9802588,-87.9089858,"(41.9802588,-87.9089858)",CHICAGO,IL,60666
2603597,6657 S Kimbark AVE,41.7737472,-87.5940266,"(41.7737472,-87.5940266)",CHICAGO,IL,60637
2603796,8601 W FOSTER AVE,41.9728267,-87.841588,"(41.9728267,-87.841588)",CHICAGO,IL,60656
2595157,1617 CLARKSON CT,41.7396406,-88.0987288,"1617, Clarkson Court, Naperville, DuPage County, Illinois, 60565, United States of America",NAPERVILLE,IL,60565
2596769,1200 S JEAN BAPTISTE POINTE DUSABLE DR,41.8703314,-87.62357420000001,"(41.8703314,-87.62357420000001)",CHICAGO,IL,60605
250459,12355 S KEDVALE AVE,41.8579036,-87.7285862,"South Kedvale Avenue, K-Town Historic District, North Lawndale, Chicago, West Chicago Township, Cook County, Illinois, 60623, United States of America",CHICAGO,IL,60623
250408,12355 S KEDVALE AVE,41.8579036,-87.7285862,"South Kedvale Avenue, K-Town Historic District, North Lawndale, Chicago, West Chicago Township, Cook County, Illinois, 60623, United States of America",CHICAGO,IL,60623
233751,12355 S KEDVALE AVE,41.8579036,-87.7285862,"South Kedvale Avenue, K-Town Historic District, North Lawndale, Chicago, West Chicago Township, Cook County, Illinois, 60623, United States of America",CHICAGO,IL,60623
176577,5515 N RIVER RD,41.97958,-87.8460168,"(41.97958,-87.8460168)",CHICAGO,IL,60656
2602822,6634 W RAVEN ST,41.9946144,-87.7926097,"(41.9946144,-87.7926097)",CHICAGO,IL,60631
98355,3549 W IRVING PK. RD. RD,41.9540011,-87.6945087,"Irving Park Road Bridge, West Irving Park Road, Irving Park, Chicago, Jefferson Township, Cook County, Illinois, 60618, United States of America",CHICAGO,IL,60618
2603508,8601 W FOSTER AVE,41.9728267,-87.841588,"(41.9728267,-87.841588)",CHICAGO,IL,60656
2607529,506 N Milwaukee AVE,41.89131314887029,-87.64800866711568,"(41.89131314887029, -87.64800866711568)",CHICAGO,IL,60642
2603977,5415 S Union AVE,41.7957456,-87.641884,"(41.7957456,-87.641884)",CHICAGO,IL,60609
2602351,5630 S Rockwell AVE,41.79098279999999,-87.6895972,"(41.79098279999999,-87.6895972)",CHICAGO,IL,60629
2602626,4123 DEYO AVE,41.8162347,-87.8561183,"4123, Deyo Avenue, Brookfield, Lyons Township, Cook County, Illinois, 60513, United States of America",BROOKFIELD,IL,60513
2602997,2332 S Western,41.849557,-87.68695629999999,"(41.849557,-87.68695629999999)",CHICAGO,IL,60608
2603982,3838 W 49TH ST,41.8043798,-87.7204015,"De Colores, 3838, West 49th Street, Archer Heights, Chicago, Lake Township, Cook County, Illinois, 60632, United States of America",CHICAGO,IL,60632
2604795,838 W KINZIE ST,41.88913510926819,-87.64905166297672,"(41.88913510926819, -87.64905166297672)",CHICAGO,IL,60642
2604662,171 N GREEN ST,41.88516541867304,-87.64847951590394,"(41.88516541867304, -87.64847951590394)",CHICAGO,IL,60607
2603151,5441 N RIVER RD,41.9782877,-87.8433022,"(41.9782877,-87.8433022)",CHICAGO,IL,60656
2604316,135 N KEDZIE AVE,41.88390509704504,-87.70605925083947,"(41.88390509704504, -87.70605925083947)",CHICAGO,IL,60612
2603361,6417 S CICERO AVE,41.77606721681204,-87.74205447566453,"(41.77606721681204, -87.74205447566453)",CHICAGO,IL,60638
2605528,1401 S CALIFORNIA AVE,41.8622623,-87.6951383,"(41.8622623,-87.6951383)",CHICAGO,IL,60608
2605994,132 E VAN BUREN ST,41.8770575,-87.6231868,"(41.8770575,-87.6231868)",CHICAGO,IL,60605
2600306,754 W GARFIELD,41.79441531175851,-87.6448915555911,"(41.79441531175851, -87.6448915555911)",CHICAGO,IL,60609
2603948,100-108 W GERMANIA PL,41.91048443655356,-87.63168311419044,"(41.91048443655356, -87.63168311419044)",CHICAGO,IL,60610
2603789,6657 S Kimbark AVE,41.7737472,-87.5940266,"(41.7737472,-87.5940266)",CHICAGO,IL,60637
2605132,776 W W QUINCY ST,41.8785883,-87.646808,"(41.8785883,-87.646808)",CHICAGO,IL,60661
2603766,6650 S Ellis AVE,41.7742214,-87.6012716,"(41.7742214,-87.6012716)",CHICAGO,IL,60637
2608081,3142 W CERMAK RD,41.85188596232242,-87.70446490366972,"(41.85188596232242, -87.70446490366972)",CHICAGO,IL,60623
2603183,2911 W W 47TH ST,41.8076606,-87.697469,"(41.8076606,-87.697469)",CHICAGO,IL,60632
2607892,1338 S HALSTED ST,41.86440790840258,-87.64698520298732,"(41.86440790840258, -87.64698520298732)",CHICAGO,IL,60607
2603577,3838 W 49TH ST,41.8043798,-87.7204015,"(41.8043798,-87.7204015)",CHICAGO,IL,60632
2602198,5516 S Maplewood AVE,41.7928811,-87.6882064,"(41.7928811,-87.6882064)",CHICAGO,IL,60629
2596757,1200 S JEAN BAPTISTE POINTE DUSABLE DR,41.8703314,-87.62357420000001,"(41.8703314,-87.62357420000001)",CHICAGO,IL,60605
2598170,1845 W ASHLAND ST,41.8562847,-87.6655883,"(41.8562847,-87.6655883)",CHICAGO,IL,60609
2597168,1010 S DELANO CT,41.8682202,-87.6328072,"(41.8682202,-87.6328072)",CHICAGO,IL,60605
2597328,9126 NILES CENTER RD,42.0466354,-87.7440401,"(42.0466354,-87.7440401)",SKOKIE,IL,60076
2596128,3355 S DR. MARTIN LUTHER KING DR,41.833293768956864,-87.6168573403182,"(41.833293768956864, -87.6168573403182)",CHICAGO,IL,60616
2597392,522 N MILWAUKEE AVE,41.89173286514732,-87.64865419293943,"(41.89173286514732, -87.64865419293943)",CHICAGO,IL,60642
2596085,4000 N O'HARE FIELD,41.9802588,-87.9089858,"(41.9802588,-87.9089858)",CHICAGO,IL,60666
2595583,3355 S DR. MARTIN LUTHER KING DR,41.833293768956864,-87.6168573403182,"(41.833293768956864, -87.6168573403182)",CHICAGO,IL,60616
2605828,6237 S HALSTED PKWY,41.7804872,-87.6422731,"(41.7804872,-87.6422731)",CHICAGO,IL,60621
2597054,522 N MILWAUKEE AVE,41.89173286514732,-87.64865419293943,"(41.89173286514732, -87.64865419293943)",CHICAGO,IL,60642
2597198,1625 CHICAGO AVE,42.047065,-87.6789663,"(42.047065,-87.6789663)",EVANSTON,IL,60201
2596777,1200 S JEAN BAPTISTE POINTE DUSABLE DR,41.8703314,-87.62357420000001,"(41.8703314,-87.62357420000001)",CHICAGO,IL,60605
2598774,2324 N FREMONT ST,41.9245121,-87.6513037,"(41.9245121,-87.6513037)",CHICAGO,IL,60614
2594806,35 CHURN RD,41.5270474,-87.7680669,"(41.5270474,-87.7680669)",MATTESON,IL,60443
2593190,1223 N ROSSELL,41.9076607,-87.786107,"(41.9076607,-87.786107)",OAK PARK,IL,60302
2590462,580 KINCAID ST,42.1630246,-87.779991,"(42.1630246,-87.779991)",HIGHLAND PARK,IL,60035
2592235,13100 S Doty,41.6755502,-87.6017907,"(41.6755502,-87.6017907)",CHICAGO,IL,60827
2592851,1400 S JEAN BAPTISTE POINTE DUSABLE LAKESHORE DR,41.8694024,-87.6173583,"(41.8694024,-87.6173583)",CHICAGO,IL,60605
2589947,10656 S TORRENCE AVE,41.70112036721256,-87.55972431384708,"(41.70112036721256, -87.55972431384708)",CHICAGO,IL,60617
2591347,1200 S JEAN BAPTISTE POINTE DUSABLE DR,41.8703314,-87.62357420000001,"(41.8703314,-87.62357420000001)",CHICAGO,IL,60605
2589394,4934 S Wabash,41.8046516,-87.6255393,"(41.8046516,-87.6255393)",CHICAGO,IL,60615
2590718,10656 S TORRENCE AVE,41.70112036721256,-87.55972431384708,"(41.70112036721256, -87.55972431384708)",CHICAGO,IL,60617
2592067,1601 PAYNE,42.0571616,-87.694595,"(42.0571616,-87.694595)",EVANSTON,IL,60201
2591352,1200 S JEAN BAPTISTE POINTE DUSABLE DR,41.8703314,-87.62357420000001,"(41.8703314,-87.62357420000001)",CHICAGO,IL,60605
2591350,1200 S JEAN BAPTISTE POINTE DUSABLE DR,41.8703314,-87.62357420000001,"(41.8703314,-87.62357420000001)",CHICAGO,IL,60605
2592619,13100 S Doty,41.6755502,-87.6017907,"(41.6755502,-87.6017907)",CHICAGO,IL,60827
2589772,3625 S Hoyne,41.8276402,-87.6773181,"(41.8276402,-87.6773181)",CHICAGO,IL,60609
2592852,1400 S JEAN BAPTISTE POINTE DUSABLE LAKESHORE DRIVE,41.8694024,-87.6173583,"(41.8694024,-87.6173583)",CHICAGO,IL,60605
2593049,1744 W Pryor,41.6908645,-87.6629395,"(41.6908645,-87.6629395)",CHICAGO,IL,60643
2592491,8118 S STONY ISLAND AVE,41.74724060201805,-87.5860251882879,"(41.74724060201805, -87.5860251882879)",CHICAGO,IL,60617
2589035,4934 S Wabash,41.8046516,-87.6255393,"(41.8046516,-87.6255393)",CHICAGO,IL,60615
2591816,3814 S HOME AVE,41.8614408,-87.7988475,"(41.8614408,-87.7988475)",BERWYN,IL,60402
2588527,1200 S JEAN BAPTISTE POINTE DUSABLE DR,41.8703314,-87.62357420000001,"(41.8703314,-87.62357420000001)",CHICAGO,IL,60605
2590495,4841 LAWN AVE,41.8018086,-87.8998294,"(41.8018086,-87.8998294)",WESTERN SPRINGS,IL,60558
2588567,1601 PAYNE,42.0571616,-87.694595,"(42.0571616,-87.694595)",EVANSTON,IL,60201
2584901,4000 N O'HARE FIELD,41.9802588,-87.9089858,"(41.9802588,-87.9089858)",CHICAGO,IL,60666
2583551,6650 S Ellis AVE,41.7742214,-87.6012716,"(41.7742214,-87.6012716)",CHICAGO,IL,60637
2585488,1504 N FREMONT ST,41.90871108788052,-87.65119210033504,"(41.90871108788052, -87.65119210033504)",CHICAGO,IL,60642
2584197,754 W GARFIELD,41.79441531175851,-87.6448915555911,"(41.79441531175851, -87.6448915555911)",CHICAGO,IL,60609
2588533,1200 S JEAN BAPTISTE POINTE DUSABLE DR,41.8703314,-87.62357420000001,"(41.8703314,-87.62357420000001)",CHICAGO,IL,60605
2584668,5415 S Union AVE,41.7957456,-87.641884,"(41.7957456,-87.641884)",CHICAGO,IL,60609
2586168,2834-2922 W VAN BUREN ST,41.87607517011914,-87.69743686861689,"(41.87607517011914, -87.69743686861689)",CHICAGO,IL,60612
2587012,5208 N LINCOLN AVE AVE,41.97626169999999,-87.6928181,"(41.97626169999999,-87.6928181)",CHICAGO,IL,60625
2588518,1200 S JEAN BAPTISTE POINTE DUSABLE DR,41.8703314,-87.62357420000001,"(41.8703314,-87.62357420000001)",CHICAGO,IL,60605
2588109,6011 S Rockwell AVE,41.7840433,-87.6883007,"(41.7840433,-87.6883007)",CHICAGO,IL,60629
2587249,3355 S DR. MARTIN LUTHER KING DR,41.833293768956864,-87.6168573403182,"(41.833293768956864, -87.6168573403182)",CHICAGO,IL,60616
2586467,6657 S Kimbark AVE,41.7737472,-87.5940266,"(41.7737472,-87.5940266)",CHICAGO,IL,60637
2585206,776 W W QUINCY ST,41.8785883,-87.646808,"(41.8785883,-87.646808)",CHICAGO,IL,60661
2585680,6237 S HALSTED PKWY,41.7804872,-87.6422731,"(41.7804872,-87.6422731)",CHICAGO,IL,60621
2587021,5208 N LINCOLN AVE AVE,41.97626169999999,-87.6928181,"(41.97626169999999,-87.6928181)",CHICAGO,IL,60625
2588535,1200 S JEAN BAPTISTE POINTE DUSABLE DR,41.8703314,-87.62357420000001,"(41.8703314,-87.62357420000001)",CHICAGO,IL,60605
2581640,6237 S HALSTED PKWY,41.7804872,-87.6422731,"(41.7804872,-87.6422731)",CHICAGO,IL,60621
2581158,3838 W 49TH ST,41.8043798,-87.7204015,"(41.8043798,-87.7204015)",CHICAGO,IL,60632
2581440,5630 S Rockwell AVE,41.79098279999999,-87.6895972,"(41.79098279999999,-87.6895972)",CHICAGO,IL,60629
2581264,6237 S HALSTED PKWY,41.7804872,-87.6422731,"(41.7804872,-87.6422731)",CHICAGO,IL,60621
2580887,8601 W FOSTER AVE,41.9728267,-87.841588,"(41.9728267,-87.841588)",CHICAGO,IL,60656
2581255,5516 S Maplewood AVE,41.7928811,-87.6882064,"(41.7928811,-87.6882064)",CHICAGO,IL,60629
2582280,43 N HOMAN,41.882211292040566,-87.7108986080365,"(41.882211292040566, -87.7108986080365)",CHICAGO,IL,60624
2587712,6011 S Rockwell AVE,41.7840433,-87.6883007,"(41.7840433,-87.6883007)",CHICAGO,IL,60629
2587429,3355 S DR. MARTIN LUTHER KING DR,41.833293768956864,-87.6168573403182,"(41.833293768956864, -87.6168573403182)",CHICAGO,IL,60616
2581049,7141 S Morgan ST,41.7636974,-87.6486262,"(41.7636974,-87.6486262)",CHICAGO,IL,60621
2581346,7141 S Morgan ST,41.7636974,-87.6486262,"(41.7636974,-87.6486262)",CHICAGO,IL,60621
2579520,1010 S DELANO CT,41.8682202,-87.6328072,"(41.8682202,-87.6328072)",CHICAGO,IL,60605
2581214,6634 W RAVEN ST,41.9946144,-87.7926097,"(41.9946144,-87.7926097)",CHICAGO,IL,60631
2572857,13100 S Doty,41.6755502,-87.6017907,"(41.6755502,-87.6017907)",CHICAGO,IL,60827
2580856,2911 W W 47TH ST,41.8076606,-87.697469,"(41.8076606,-87.697469)",CHICAGO,IL,60632
2581039,2332 S Western,41.849557,-87.68695629999999,"(41.849557,-87.68695629999999)",CHICAGO,IL,60608
2580647,4619 S Wolcott AVE,41.8096282,-87.6719638,"(41.8096282,-87.6719638)",CHICAGO,IL,60609
2578014,7557 LATROBE AVE,41.7549934,-87.752359,"(41.7549934,-87.752359)",BURBANK,IL,60459
2575835,5114 S Elizabeth ST,41.8000688,-87.6565647,"(41.8000688,-87.6565647)",CHICAGO,IL,60609
2577267,605 N MICHIGAN AVE,41.89271559094062,-87.62404433360936,"(41.89271559094062, -87.62404433360936)",CHICAGO,IL,60611
2576465,6011 S Rockwell AVE,41.7840433,-87.6883007,"(41.7840433,-87.6883007)",CHICAGO,IL,60629
2577676,605 N MICHIGAN AVE,41.89271559094062,-87.62404433360936,"(41.89271559094062, -87.62404433360936)",CHICAGO,IL,60611
2573627,1471 W SUPERIOR ST,41.89507989142611,-87.66514210805768,"(41.89507989142611, -87.66514210805768)",CHICAGO,IL,60642
2575390,1010 S DELANO CT,41.8682202,-87.6328072,"(41.8682202,-87.6328072)",CHICAGO,IL,60605
2573963,838 W KINZIE ST,41.88913510926819,-87.64905166297672,"(41.88913510926819, -87.64905166297672)",CHICAGO,IL,60642
2576356,1497 WHITMAN CT,42.0256363,-88.0435798,"(42.0256363,-88.0435798)",SCHAUMBURG,IL,60173
2574703,522 N MILWAUKEE AVE,41.89173286514732,-87.64865419293943,"(41.89173286514732, -87.64865419293943)",CHICAGO,IL,60642
2575931,1400 S JEAN BAPTISTE POINTE DUSABLE LAKESHORE DR,41.8694024,-87.6173583,"(41.8694024,-87.6173583)",CHICAGO,IL,60605
2576243,1400 S JEAN BAPTISTE POINTE DUSABLE LAKESHORE DRIVE,41.8694024,-87.6173583,"(41.8694024,-87.6173583)",CHICAGO,IL,60605
2574063,2738 W 111TH ST,41.69180699696425,-87.69001038000233,"(41.69180699696425, -87.69001038000233)",CHICAGO,IL,60655
2573839,838 W KINZIE ST,41.88913510926819,-87.64905166297672,"(41.88913510926819, -87.64905166297672)",CHICAGO,IL,60642
2571498,580 KINCAID ST,42.1630246,-87.779991,"(42.1630246,-87.779991)",HIGHLAND PARK,IL,60035
2571701,5255 S State ST,41.7995035,-87.625015,"(41.7995035,-87.625015)",CHICAGO,IL,60609
2575934,1400 S JEAN BAPTISTE POINTE DUSABLE LAKESHORE DRIVE,41.8694024,-87.6173583,"(41.8694024,-87.6173583)",CHICAGO,IL,60605
2623188,7141 S Morgan ST,41.7636974,-87.6486262,"(41.7636974,-87.6486262)",CHICAGO,IL,60621
2575576,135 N KEDZIE,41.88390509704504,-87.70605925083947,"(41.88390509704504, -87.70605925083947)",CHICAGO,IL,60612
2568220,13100 S Doty,41.6755502,-87.6017907,"(41.6755502,-87.6017907)",CHICAGO,IL,60827
2568209,754 W GARFIELD,41.79441531175851,-87.6448915555911,"(41.79441531175851, -87.6448915555911)",CHICAGO,IL,60609
2567570,4619 S Wolcott AVE,41.8096282,-87.6719638,"(41.8096282,-87.6719638)",CHICAGO,IL,60609
2572411,13100 S Doty,41.6755502,-87.6017907,"(41.6755502,-87.6017907)",CHICAGO,IL,60827
2567151,5415 S Union AVE,41.7957456,-87.641884,"(41.7957456,-87.641884)",CHICAGO,IL,60609
2571190,5900 N Nina AVE,41.9890858,-87.8026557,"(41.9890858,-87.8026557)",CHICAGO,IL,60631
2567065,7037 S Rhodes AVE,41.7666885,-87.6113124,"(41.7666885,-87.6113124)",CHICAGO,IL,60637
2569554,2834-2922 W VAN BUREN ST,41.87607517011914,-87.69743686861689,"(41.87607517011914, -87.69743686861689)",CHICAGO,IL,60612
2567714,6237 S HALSTED PKWY,41.7804872,-87.6422731,"(41.7804872,-87.6422731)",CHICAGO,IL,60621
2567179,4619 S Wolcott AVE,41.8096282,-87.6719638,"(41.8096282,-87.6719638)",CHICAGO,IL,60609
2568893,13100 S Doty,41.6755502,-87.6017907,"(41.6755502,-87.6017907)",CHICAGO,IL,60827
2568436,1401 S CALIFORNIA AVE,41.8622623,-87.6951383,"(41.8622623,-87.6951383)",CHICAGO,IL,60608
2566912,5255 S State ST,41.7995035,-87.625015,"(41.7995035,-87.625015)",CHICAGO,IL,60609
2569376,13100 S Doty,41.6755502,-87.6017907,"(41.6755502,-87.6017907)",CHICAGO,IL,60827
2564127,5516 S Maplewood AVE,41.7928811,-87.6882064,"(41.7928811,-87.6882064)",CHICAGO,IL,60629
2556920,1400 S JEAN BAPTISTE POINTE DUSABLE LAKESHORE DR,41.8694024,-87.6173583,"(41.8694024,-87.6173583)",CHICAGO,IL,60605
2572088,4934 S Wabash,41.8046516,-87.6255393,"(41.8046516,-87.6255393)",CHICAGO,IL,60615
2564552,100-108 W GERMANIA PL,41.91048443655356,-87.63168311419044,"(41.91048443655356, -87.63168311419044)",CHICAGO,IL,60610
2566236,6650 S Ellis AVE,41.7742214,-87.6012716,"(41.7742214,-87.6012716)",CHICAGO,IL,60637
2565603,6237 S HALSTED PKWY,41.7804872,-87.6422731,"(41.7804872,-87.6422731)",CHICAGO,IL,60621
2562109,545 W 31ST,41.8379944,-87.6407205,"(41.8379944,-87.6407205)",CHICAGO,IL,60616
2566887,776 W W QUINCY ST,41.8785883,-87.646808,"(41.8785883,-87.646808)",CHICAGO,IL,60661
2556364,6905 WILDSPRING LN,42.2301223,-88.0017093,"(42.2301223,-88.0017093)",LAKE ZURICH,IL,60047
2562485,6634 W RAVEN ST,41.9946144,-87.7926097,"(41.9946144,-87.7926097)",CHICAGO,IL,60631
2563654,8601 W FOSTER AVE,41.9728267,-87.841588,"(41.9728267,-87.841588)",CHICAGO,IL,60656
2562794,7141 S Morgan ST,41.7636974,-87.6486262,"(41.7636974,-87.6486262)",CHICAGO,IL,60621
2566497,4000 N O'HARE FIELD,41.9802588,-87.9089858,"(41.9802588,-87.9089858)",CHICAGO,IL,60666
2562687,1625 CHICAGO AVE,42.047065,-87.6789663,"(42.047065,-87.6789663)",EVANSTON,IL,60201
2563704,5630 S Rockwell AVE,41.79098279999999,-87.6895972,"(41.79098279999999,-87.6895972)",CHICAGO,IL,60629
2561538,1010 S DELANO CT,41.8682202,-87.6328072,"(41.8682202,-87.6328072)",CHICAGO,IL,60605
2566753,6237 S HALSTED PKWY,41.7804872,-87.6422731,"(41.7804872,-87.6422731)",CHICAGO,IL,60621
2566655,5255 S State ST,41.7995035,-87.625015,"(41.7995035,-87.625015)",CHICAGO,IL,60609
2566564,6657 S Kimbark AVE,41.7737472,-87.5940266,"(41.7737472,-87.5940266)",CHICAGO,IL,60637
2564947,100-108 W GERMANIA PL,41.91048443655356,-87.63168311419044,"(41.91048443655356, -87.63168311419044)",CHICAGO,IL,60610
2556891,135 N KEDZIE,41.88390509704504,-87.70605925083947,"(41.88390509704504, -87.70605925083947)",CHICAGO,IL,60612
2556917,1400 S JEAN BAPTISTE POINTE DUSABLE LAKESHORE DR,41.8694024,-87.6173583,"(41.8694024,-87.6173583)",CHICAGO,IL,60605
2560405,2911 W W 47TH ST,41.8076606,-87.697469,"(41.8076606,-87.697469)",CHICAGO,IL,60632
2401497,5516 S Maplewood AVE,41.7928811,-87.6882064,"(41.7928811,-87.6882064)",CHICAGO,IL,60629
2554891,6011 S Rockwell AVE,41.7840433,-87.6883007,"(41.7840433,-87.6883007)",CHICAGO,IL,60629
2556916,1400 S JEAN BAPTISTE POINTE DUSABLE LAKESHORE DR,41.8694024,-87.6173583,"(41.8694024,-87.6173583)",CHICAGO,IL,60605
2554491,2911 W W 47TH ST,41.8076606,-87.697469,"(41.8076606,-87.697469)",CHICAGO,IL,60632
2560531,6634 W RAVEN ST,41.9946144,-87.7926097,"(41.9946144,-87.7926097)",CHICAGO,IL,60631
2556918,1400 S JEAN BAPTISTE POINTE DUSABLE LAKESHORE DR,41.8694024,-87.6173583,"(41.8694024,-87.6173583)",CHICAGO,IL,60605
2556928,1400 S JEAN BAPTISTE POINTE DUSABLE LAKESHORE DRIVE,41.8694024,-87.6173583,"(41.8694024,-87.6173583)",CHICAGO,IL,60605
2556407,1504 N FREMONT ST,41.90871108788052,-87.65119210033504,"(41.90871108788052, -87.65119210033504)",CHICAGO,IL,60642
2556751,5114 S Elizabeth ST,41.8000688,-87.6565647,"(41.8000688,-87.6565647)",CHICAGO,IL,60609
2555042,8344 S HALSTED ST,41.74201532533156,-87.64393794761001,"(41.74201532533156, -87.64393794761001)",CHICAGO,IL,60620
2546771,522 N MILWAUKEE AVE,41.89173286514732,-87.64865419293943,"(41.89173286514732, -87.64865419293943)",CHICAGO,IL,60642
2554175,431 S HARVEY,41.8810207,-87.7813294,"(41.8810207,-87.7813294)",OAK PARK,IL,60302
2560345,1625 CHICAGO AVE,42.047065,-87.6789663,"(42.047065,-87.6789663)",EVANSTON,IL,60201
2560419,2911 W W 47TH ST,41.8076606,-87.697469,"(41.8076606,-87.697469)",CHICAGO,IL,60632
2556889,7428 W 58TH PL,41.7855886,-87.80735489999999,"(41.7855886,-87.80735489999999)",SUMMIT,IL,60501
2557030,1471 W SUPERIOR ST,41.89507989142611,-87.66514210805768,"(41.89507989142611, -87.66514210805768)",CHICAGO,IL,60642
2557151,6237 S HALSTED PKWY,41.7804872,-87.6422731,"(41.7804872,-87.6422731)",CHICAGO,IL,60621
2555547,2S160 KENT RD,41.8418424,-88.0505046,"(41.8418424,-88.0505046)",GLEN ELLYN,IL,60137
2556926,1400 S JEAN BAPTISTE POINTE DUSABLE LAKESHORE DRIVE,41.8694024,-87.6173583,"(41.8694024,-87.6173583)",CHICAGO,IL,60605
2556741,6237 S HALSTED PKWY,41.7804872,-87.6422731,"(41.7804872,-87.6422731)",CHICAGO,IL,60621
2553673,2911 W W 47TH ST,41.8076606,-87.697469,"(41.8076606,-87.697469)",CHICAGO,IL,60632
2555563,6011 S Rockwell AVE,41.7840433,-87.6883007,"(41.7840433,-87.6883007)",CHICAGO,IL,60629
2546764,6634 W RAVEN ST,41.9946144,-87.7926097,"(41.9946144,-87.7926097)",CHICAGO,IL,60631
2545545,776 W W QUINCY ST,41.8785883,-87.646808,"(41.8785883,-87.646808)",CHICAGO,IL,60661
2556919,1400 S JEAN BAPTISTE POINTE DUSABLE LAKESHORE DR,41.8694024,-87.6173583,"(41.8694024,-87.6173583)",CHICAGO,IL,60605
2556923,1400 S JEAN BAPTISTE POINTE DUSABLE LAKESHORE DRIVE,41.8694024,-87.6173583,"(41.8694024,-87.6173583)",CHICAGO,IL,60605
2538167,1401 S CALIFORNIA AVE,41.8622623,-87.6951383,"(41.8622623,-87.6951383)",CHICAGO,IL,60608
2553548,3625 S Hoyne,41.8276402,-87.6773181,"(41.8276402,-87.6773181)",CHICAGO,IL,60609
2547156,6634 W RAVEN ST,41.9946144,-87.7926097,"(41.9946144,-87.7926097)",CHICAGO,IL,60631
2546572,6040 N Kilpatrick AVE,41.9912004,-87.7464722,"(41.9912004,-87.7464722)",CHICAGO,IL,60646
2538090,1601 PAYNE ST,42.0571616,-87.694595,"(42.0571616,-87.694595)",EVANSTON,IL,60201
2549763,4934 S Wabash,41.8046516,-87.6255393,"(41.8046516,-87.6255393)",CHICAGO,IL,60615
2546639,5900 N Nina AVE,41.9890858,-87.8026557,"(41.9890858,-87.8026557)",CHICAGO,IL,60631
2531991,3424 S State ST,41.8321532,-87.6272509,"(41.8321532,-87.6272509)",CHICAGO,IL,60616
2544591,1010 S DELANO CT,41.8682202,-87.6328072,"(41.8682202,-87.6328072)",CHICAGO,IL,60605
2529021,14522 S MARQUETTE AVE,41.6390213,-87.5567975,"(41.6390213,-87.5567975)",BURNHAM,IL,60633
2532079,7141 S Morgan ST,41.7636974,-87.6486262,"(41.7636974,-87.6486262)",CHICAGO,IL,60621
2531998,2332 S Western,41.849557,-87.68695629999999,"(41.849557,-87.68695629999999)",CHICAGO,IL,60608
2522994,616 ARLINGTON PL PL,41.9271642,-87.6444891,"(41.9271642,-87.6444891)",CHICAGO,IL,60614
2534271,8601 W FOSTER AVE,41.9728267,-87.841588,"(41.9728267,-87.841588)",CHICAGO,IL,60656
2531700,3424 S State ST,41.8320671,-87.6258914,"(41.8320671,-87.6258914)",CHICAGO,IL,60616
2535023,13100 S Doty,41.6755502,-87.6017907,"(41.6755502,-87.6017907)",CHICAGO,IL,60827
2522666,6237 S HALSTED PKWY,41.7804872,-87.6422731,"(41.7804872,-87.6422731)",CHICAGO,IL,60621
2537378,5255 S State ST,41.7995035,-87.625015,"(41.7995035,-87.625015)",CHICAGO,IL,60609
2529022,385 MACKINAW AVE,41.625174,-87.5419697,"(41.625174,-87.5419697)",CALUMET CITY,IL,60409
2537542,6650 S Ellis AVE,41.7742214,-87.6012716,"(41.7742214,-87.6012716)",CHICAGO,IL,60637
2528505,6237 S HALSTED PKWY,41.7804872,-87.6422731,"(41.7804872,-87.6422731)",CHICAGO,IL,60621
2510338,3625 S Hoyne,41.8276402,-87.6773181,"(41.8276402,-87.6773181)",CHICAGO,IL,60609
2538211,7141 S Morgan ST,41.7636974,-87.6486262,"(41.7636974,-87.6486262)",CHICAGO,IL,60621
2534411,5415 S Union AVE,41.7957456,-87.641884,"(41.7957456,-87.641884)",CHICAGO,IL,60609
2529204,8848 S UTICA AVE,41.7325713,-87.6985795,"(41.7325713,-87.6985795)",EVERGREEN PARK,IL,60805
2521545,6011 S Rockwell AVE,41.7840433,-87.6883007,"(41.7840433,-87.6883007)",CHICAGO,IL,60629
2522099,1518 N THROOP ST,41.90964727179595,-87.66051234940016,"(41.90964727179595, -87.66051234940016)",CHICAGO,IL,60642
2509456,522 N MILWAUKEE AVE,41.89173286514732,-87.64865419293943,"(41.89173286514732, -87.64865419293943)",CHICAGO,IL,60642
2522401,25553 WOLFS CROSSING RD,41.6985586,-88.2440551,"(41.6985586,-88.2440551)",PLAINFIELD,IL,60585
2535212,6657 S Kimbark AVE,41.7737472,-87.5940266,"(41.7737472,-87.5940266)",CHICAGO,IL,60637
2535043,5255 S State ST,41.7995035,-87.625015,"(41.7995035,-87.625015)",CHICAGO,IL,60609
2528354,1247 EUCLID AVE,41.8640712,-87.7923809,"(41.8640712,-87.7923809)",BERWYN,IL,60402
2523440,506 N Milwaukee AVE,41.89131314887029,-87.64800866711568,"(41.89131314887029, -87.64800866711568)",CHICAGO,IL,60642
2511081,6431 OAKTON ST,42.026367,-87.7874412,"(42.026367,-87.7874412)",MORTON GROVE,IL,60053
2500917,522 N MILWAUKEE AVE,41.89173286514732,-87.64865419293943,"(41.89173286514732, -87.64865419293943)",CHICAGO,IL,60642
2510057,3625 S Hoyne,41.8276402,-87.6773181,"(41.8276402,-87.6773181)",CHICAGO,IL,60609
2522522,4001 W 93RD PL,41.723185,-87.722435,"(41.723185,-87.722435)",OAK LAWN,IL,60453
2509619,1942 W 47TH ST,41.808626641462254,-87.67395513726541,"(41.808626641462254, -87.67395513726541)",CHICAGO,IL,60609
2509372,5114 S Elizabeth ST,41.8000688,-87.6565647,"(41.8000688,-87.6565647)",CHICAGO,IL,60609
2472492,1247 EUCLID AVE,41.8640712,-87.7923809,"(41.8640712,-87.7923809)",BERWYN,IL,60402
2509558,6237 S HALSTED PKWY,41.7804872,-87.6422731,"(41.7804872,-87.6422731)",CHICAGO,IL,60621
2456692,6657 S Kimbark AVE,41.7737472,-87.5940266,"(41.7737472,-87.5940266)",CHICAGO,IL,60637
2500225,1744 W Pryor,41.6908645,-87.6629395,"(41.6908645,-87.6629395)",CHICAGO,IL,60643
2510389,4000 N O'HARE FIELD,41.9802588,-87.9089858,"(41.9802588,-87.9089858)",CHICAGO,IL,60666
2492792,2448 W 63 RD,41.7794232,-87.6855789,"(41.7794232,-87.6855789)",CHICAGO,IL,60629
2484614,100-108 W GERMANIA PL,41.91048443655356,-87.63168311419044,"(41.91048443655356, -87.63168311419044)",CHICAGO,IL,60610
2492476,2911 W W 47TH ST,41.8076606,-87.697469,"(41.8076606,-87.697469)",CHICAGO,IL,60632
2456674,1625 CHICAGO AVE,42.047065,-87.6789663,"(42.047065,-87.6789663)",EVANSTON,IL,60201
2454034,5415 S Union AVE,41.7957456,-87.641884,"(41.7957456,-87.641884)",CHICAGO,IL,60609
2484610,100-108 W GERMANIA PL,41.91048443655356,-87.63168311419044,"(41.91048443655356, -87.63168311419044)",CHICAGO,IL,60610
2492473,4934 S Wabash,41.8046516,-87.6255393,"(41.8046516,-87.6255393)",CHICAGO,IL,60615
2453701,1700 N THROOP ST,41.9139941,-87.6623086,"(41.9139941,-87.6623086)",CHICAGO,IL,60642
2453809,8601 W FOSTER AVE,41.9728267,-87.841588,"(41.9728267,-87.841588)",CHICAGO,IL,60656
2456838,7037 S Rhodes AVE,41.7666885,-87.6113124,"(41.7666885,-87.6113124)",CHICAGO,IL,60637
2492731,1017 S DELANO CT,41.8682202,-87.6328072,"(41.8682202,-87.6328072)",CHICAGO,IL,60605
2473151,100-108 W GERMANIA PL,41.91048443655356,-87.63168311419044,"(41.91048443655356, -87.63168311419044)",CHICAGO,IL,60610
2473147,100-108 W GERMANIA PL,41.91048443655356,-87.63168311419044,"(41.91048443655356, -87.63168311419044)",CHICAGO,IL,60610
2492718,6634 W RAVEN ST,41.9946144,-87.7926097,"(41.9946144,-87.7926097)",CHICAGO,IL,60631
2463402,912 N ASHLAND AVE,41.898289314303305,-87.66750000594696,"(41.898289314303305, -87.66750000594696)",CHICAGO,IL,60622
2493124,5900 N Nina AVE,41.9890858,-87.8026557,"(41.9890858,-87.8026557)",CHICAGO,IL,60631
2492996,6040 N Kilpatrick AVE,41.9912004,-87.7464722,"(41.9912004,-87.7464722)",CHICAGO,IL,60646
2484953,2834-2922 W VAN BUREN ST,41.87607517011914,-87.69743686861689,"(41.87607517011914, -87.69743686861689)",CHICAGO,IL,60612
2456815,4619 S Wolcott AVE,41.8096282,-87.6719638,"(41.8096282,-87.6719638)",CHICAGO,IL,60609
2453900,5255 S State ST,41.7995035,-87.625015,"(41.7995035,-87.625015)",CHICAGO,IL,60609
2456433,6237 S HALSTED PKWY,41.7804872,-87.6422731,"(41.7804872,-87.6422731)",CHICAGO,IL,60621
2492683,2448 W 63 RD,41.7794232,-87.6855789,"(41.7794232,-87.6855789)",CHICAGO,IL,60629
2401677,6237 S HALSTED PKWY,41.7804872,-87.6422731,"(41.7804872,-87.6422731)",CHICAGO,IL,60621
2401472,5630 S Rockwell AVE,41.79098279999999,-87.6895972,"(41.79098279999999,-87.6895972)",CHICAGO,IL,60629
2382533,6237 S HALSTED PKWY,41.7804872,-87.6422731,"(41.7804872,-87.6422731)",CHICAGO,IL,60621
2365877,7451 W 100TH PL,41.7093496,-87.8094842,"(41.7093496,-87.8094842)",BRIDGEVIEW,IL,60455
2402026,6237 S HALSTED PKWY,41.7804872,-87.6422731,"(41.7804872,-87.6422731)",CHICAGO,IL,60621
2374072,5208 N LINCOLN AVE AVE,41.97626169999999,-87.6928181,"(41.97626169999999,-87.6928181)",CHICAGO,IL,60625
2386413,8344 S HALSTED ST,41.74201532533156,-87.64393794761001,"(41.74201532533156, -87.64393794761001)",CHICAGO,IL,60620
2384228,3424 S State ST,41.8321532,-87.6272509,"(41.8321532,-87.6272509)",CHICAGO,IL,60616
2402116,13100 S Doty,41.6755502,-87.6017907,"(41.6755502,-87.6017907)",CHICAGO,IL,60827
2370726,1148 N MILWAUKEE AVE,41.90249586026425,-87.66535770275132,"(41.90249586026425, -87.66535770275132)",CHICAGO,IL,60642
2365636,1744 W Pryor,41.6908645,-87.6629395,"(41.6908645,-87.6629395)",CHICAGO,IL,60643
2453438,2332 S Western,41.849557,-87.68695629999999,"(41.849557,-87.68695629999999)",CHICAGO,IL,60608
2401875,5516 S Maplewood AVE,41.7928811,-87.6882064,"(41.7928811,-87.6882064)",CHICAGO,IL,60629
2370655,6040 N Kilpatrick AVE,41.9912004,-87.7464722,"(41.9912004,-87.7464722)",CHICAGO,IL,60646
2369659,522 N MILWAUKEE AVE,41.89173286514732,-87.64865419293943,"(41.89173286514732, -87.64865419293943)",CHICAGO,IL,60642
2370200,1504 N FREMONT ST,41.90871108788052,-87.65119210033504,"(41.90871108788052, -87.65119210033504)",CHICAGO,IL,60642
2363154,4934 S Wabash,41.8046516,-87.6255393,"(41.8046516,-87.6255393)",CHICAGO,IL,60615
2365218,6011 S Rockwell AVE,41.7840433,-87.6883007,"(41.7840433,-87.6883007)",CHICAGO,IL,60629
2362749,4934 S Wabash,41.8046516,-87.6255393,"(41.8046516,-87.6255393)",CHICAGO,IL,60615
2353211,4619 S Wolcott AVE,41.8096282,-87.6719638,"(41.8096282,-87.6719638)",CHICAGO,IL,60609
2355424,2009 S LAFIN ST,41.8548352,-87.6635321,"(41.8548352,-87.6635321)",CHICAGO,IL,60608
2369626,3355 S DR. MARTIN LUTHER KING DR,41.833293768956864,-87.6168573403182,"(41.833293768956864, -87.6168573403182)",CHICAGO,IL,60616
2359769,2218-2222 N WESTERN AVE,41.922312062185554,-87.68770889778496,"(41.922312062185554, -87.68770889778496)",CHICAGO,IL,60647
2352873,3625 S Hoyne,41.8276402,-87.6773181,"(41.8276402,-87.6773181)",CHICAGO,IL,60609
2352530,6657 S Kimbark AVE,41.7737472,-87.5940266,"(41.7737472,-87.5940266)",CHICAGO,IL,60637
2359813,2218-2222 N WESTERN AVE,41.922312062185554,-87.68770889778496,"(41.922312062185554, -87.68770889778496)",CHICAGO,IL,60647
2356198,2218-2222 N WESTERN AVE,41.922312062185554,-87.68770889778496,"(41.922312062185554, -87.68770889778496)",CHICAGO,IL,60647
2362300,2332 S Western,41.849557,-87.68695629999999,"(41.849557,-87.68695629999999)",CHICAGO,IL,60608
2352910,6657 S Kimbark AVE,41.7737472,-87.5940266,"(41.7737472,-87.5940266)",CHICAGO,IL,60637
2356554,6634 W RAVEN ST,41.9946144,-87.7926097,"(41.9946144,-87.7926097)",CHICAGO,IL,60631
2356319,5900 N Nina AVE,41.9890858,-87.8026557,"(41.9890858,-87.8026557)",CHICAGO,IL,60631
2355485,13100 S Doty,41.6755502,-87.6017907,"(41.6755502,-87.6017907)",CHICAGO,IL,60827
2359768,2218-2222 N WESTERN AVE,41.922312062185554,-87.68770889778496,"(41.922312062185554, -87.68770889778496)",CHICAGO,IL,60647
2355425,2009 S LAFIN ST,41.8548352,-87.6635321,"(41.8548352,-87.6635321)",CHICAGO,IL,60608
2356659,2218-2222 N WESTERN AVE,41.922312062185554,-87.68770889778496,"(41.922312062185554, -87.68770889778496)",CHICAGO,IL,60647
2346165,6650 S Ellis AVE,41.7742214,-87.6012716,"(41.7742214,-87.6012716)",CHICAGO,IL,60637
2356197,2218-2222 N WESTERN AVE,41.922312062185554,-87.68770889778496,"(41.922312062185554, -87.68770889778496)",CHICAGO,IL,60647
2356655,2218-2222 N WESTERN AVE,41.922312062185554,-87.68770889778496,"(41.922312062185554, -87.68770889778496)",CHICAGO,IL,60647
2356195,2218-2222 N WESTERN AVE,41.922312062185554,-87.68770889778496,"(41.922312062185554, -87.68770889778496)",CHICAGO,IL,60647
2355421,2009 S LAFIN ST,41.8548352,-87.6635321,"(41.8548352,-87.6635321)",CHICAGO,IL,60608
2345874,7037 S Rhodes AVE,41.7666885,-87.6113124,"(41.7666885,-87.6113124)",CHICAGO,IL,60637
2359810,2218-2222 N WESTERN AVE,41.922312062185554,-87.68770889778496,"(41.922312062185554, -87.68770889778496)",CHICAGO,IL,60647
2355286,13100 S Doty,41.6755502,-87.6017907,"(41.6755502,-87.6017907)",CHICAGO,IL,60827
2362267,853 S ROSELLE RD,42.01113,-88.0799213,"(42.01113,-88.0799213)",SCHAUMBURG,IL,60193
2355480,4619 S Wolcott AVE,41.8096282,-87.6719638,"(41.8096282,-87.6719638)",CHICAGO,IL,60609
2352550,5114 S Elizabeth ST,41.8000688,-87.6565647,"(41.8000688,-87.6565647)",CHICAGO,IL,60609
2350211,5114 S Elizabeth ST,41.8000688,-87.6565647,"(41.8000688,-87.6565647)",CHICAGO,IL,60609
2315301,5255 S State ST,41.7995035,-87.625015,"(41.7995035,-87.625015)",CHICAGO,IL,60609
2315317,7141 S Morgan ST,41.7636974,-87.6486262,"(41.7636974,-87.6486262)",CHICAGO,IL,60621
2312072,5516 S Maplewood AVE,41.7928811,-87.6882064,"(41.7928811,-87.6882064)",CHICAGO,IL,60629
2345633,2009 S LAFIN ST,41.8548352,-87.6635321,"(41.8548352,-87.6635321)",CHICAGO,IL,60608
2315722,6237 S HALSTED PKWY,41.7804872,-87.6422731,"(41.7804872,-87.6422731)",CHICAGO,IL,60621
2315467,2009 S LAFIN ST,41.8548352,-87.6635321,"(41.8548352,-87.6635321)",CHICAGO,IL,60608
2315463,2009 S LAFIN ST,41.8548352,-87.6635321,"(41.8548352,-87.6635321)",CHICAGO,IL,60608
2311825,6237 S HALSTED PKWY,41.7804872,-87.6422731,"(41.7804872,-87.6422731)",CHICAGO,IL,60621
2311568,6237 S HALSTED PKWY,41.7804872,-87.6422731,"(41.7804872,-87.6422731)",CHICAGO,IL,60621
2345431,5415 S Union AVE,41.7957456,-87.641884,"(41.7957456,-87.641884)",CHICAGO,IL,60609
2312360,1010 S DELANO CT,41.8682202,-87.6328072,"(41.8682202,-87.6328072)",CHICAGO,IL,60605
2316119,6237 S HALSTED PKWY,41.7804872,-87.6422731,"(41.7804872,-87.6422731)",CHICAGO,IL,60621
2312358,1010 S DELANO CT,41.8682202,-87.6328072,"(41.8682202,-87.6328072)",CHICAGO,IL,60605
2311665,1010 S DELANO CT,41.8682202,-87.6328072,"(41.8682202,-87.6328072)",CHICAGO,IL,60605
2293762,8722 S FAIRFIELD AVE,41.7345688,-87.6912076,"(41.7345688,-87.6912076)",CHICAGO,IL,60805
2294051,950 ESTES CT,42.0027309,-88.1025879,"(42.0027309,-88.1025879)",SCHAUMBURG,IL,60193
2293744,1307 CARDINAL DR,42.1528552,-88.3014802,"(42.1528552,-88.3014802)",ALGONQUIN,IL,60102
2293464,108 W PARK,41.8992927,-87.9405057,"(41.8992927,-87.9405057)",ELMHURST,IL,60126
2304889,150 RIVERSIDE PLZ,41.8825427,-87.638745,"(41.8825427,-87.638745)",CHICAGO,IL,60606
2291200,239 GOLF MILL CENTER STE 322,42.050456,-87.8368115,"(42.050456,-87.8368115)",NILES NILES,IL,60714
2304872,2911 W W 47TH ST,41.8076606,-87.697469,"(41.8076606,-87.697469)",CHICAGO,IL,60632
2291191,951 W WISE RD,42.0043921,-88.1026741,"(42.0043921,-88.1026741)",SCHAUMBURG,IL,60193
2290656,838 W KINZIE ST,41.88913510926819,-87.64905166297672,"(41.88913510926819, -87.64905166297672)",CHICAGO,IL,60642
2279940,3424 S State ST,41.8321532,-87.6272509,"(41.8321532,-87.6272509)",CHICAGO,IL,60616
2282217,3838 W 49TH ST,41.8043798,-87.7204015,"(41.8043798,-87.7204015)",CHICAGO,IL,60632
2288466,2504 173RD ST,41.581144,-87.5565036,"(41.581144,-87.5565036)",LANSING,IL,60438
2288909,1438 W CORTLAND ST,41.916996072966775,-87.6645967198223,"(41.916996072966775, -87.6645967198223)",CHICAGO,IL,60642
2282467,39063 N OGDEN LN,42.4293173,-87.8880914,"(42.4293173,-87.8880914)",WADSWORTH,IL,60083
2290928,1401 S CALIFORNIA AVE,41.8622623,-87.6951383,"(41.8622623,-87.6951383)",CHICAGO,IL,60608
2288216,1504 N FREMONT ST,41.90871108788052,-87.65119210033504,"(41.90871108788052, -87.65119210033504)",CHICAGO,IL,60642
2289098,522 N MILWAUKEE AVE,41.89173286514732,-87.64865419293943,"(41.89173286514732, -87.64865419293943)",CHICAGO,IL,60642
2291154,1625 CHICAGO AVE,42.047065,-87.6789663,"(42.047065,-87.6789663)",EVANSTON,IL,60201
2283079,6011 S Rockwell AVE,41.7840433,-87.6883007,"(41.7840433,-87.6883007)",CHICAGO,IL,60629
2291095,522 N MILWAUKEE AVE,41.89173286514732,-87.64865419293943,"(41.89173286514732, -87.64865419293943)",CHICAGO,IL,60642
2290662,838 W KINZIE ST,41.88913510926819,-87.64905166297672,"(41.88913510926819, -87.64905166297672)",CHICAGO,IL,60642
2261602,7104 N MANNHEIM RD,41.9575052,-87.8845199,"(41.9575052,-87.8845199)",ROSEMONT,IL,60018
2181506,22 N WOODLAND TRL,41.6702861,-87.8227837,"(41.6702861,-87.8227837)",PALOS PARK,IL,60464
2181230,8722 S FAIRFIELD AVE,41.7345688,-87.6912076,"(41.7345688,-87.6912076)",CHICAGO,IL,60805
2279377,5630 S Rockwell AVE,41.79098279999999,-87.6895972,"(41.79098279999999,-87.6895972)",CHICAGO,IL,60629
2268849,1744 W Pryor,41.6908645,-87.6629395,"(41.6908645,-87.6629395)",CHICAGO,IL,60643
2268967,6634 W RAVEN ST,41.9946144,-87.7926097,"(41.9946144,-87.7926097)",CHICAGO,IL,60631
2252649,7104 N MANNHEIM RD,41.9575052,-87.8845199,"(41.9575052,-87.8845199)",ROSEMONT,IL,60018
2268696,1744 W Pryor,41.6908645,-87.6629395,"(41.6908645,-87.6629395)",CHICAGO,IL,60643
2268374,4934 S Wabash,41.8046516,-87.6255393,"(41.8046516,-87.6255393)",CHICAGO,IL,60615
2269079,1060 SUSSEX LN,41.8345575,-88.0906129,"(41.8345575,-88.0906129)",WHEATON,IL,60189
2280005,6237 S HALSTED PKWY,41.7804872,-87.6422731,"(41.7804872,-87.6422731)",CHICAGO,IL,60621
2269193,5900 N Nina AVE,41.9890858,-87.8026557,"(41.9890858,-87.8026557)",CHICAGO,IL,60631
2261670,2332 S Western,41.849557,-87.68695629999999,"(41.849557,-87.68695629999999)",CHICAGO,IL,60608
2279554,1017 S DELANO CT,41.8682202,-87.6328072,"(41.8682202,-87.6328072)",CHICAGO,IL,60605
2252272,6040 N Kilpatrick AVE,41.9912004,-87.7464722,"(41.9912004,-87.7464722)",CHICAGO,IL,60646
2261960,1350-1358- E 47TH ST,41.8097920410891,-87.59309107391604,"(41.8097920410891, -87.59309107391604)",CHICAGO,IL,60653
2098383,500 N MILWAUKEE AVE,41.89114627169734,-87.64777460811625,"(41.89114627169734, -87.64777460811625)",CHICAGO,IL,60642
2240721,3625 S Hoyne,41.8276402,-87.6773181,"(41.8276402,-87.6773181)",CHICAGO,IL,60609
2240470,3625 S Hoyne,41.8276402,-87.6773181,"(41.8276402,-87.6773181)",CHICAGO,IL,60609
2232851,5208 N LINCOLN AVE AVE,41.97626169999999,-87.6928181,"(41.97626169999999,-87.6928181)",CHICAGO,IL,60625
2240366,1401 S CALIFORNIA AVE,41.8622623,-87.6951383,"(41.8622623,-87.6951383)",CHICAGO,IL,60608
2233206,1010 S DELANO CT,41.8682202,-87.6328072,"(41.8682202,-87.6328072)",CHICAGO,IL,60605
2232359,7037 S Rhodes AVE,41.7666885,-87.6113124,"(41.7666885,-87.6113124)",CHICAGO,IL,60637
2230179,1148 N MILWAUKEE AVE,41.90249586026425,-87.66535770275132,"(41.90249586026425, -87.66535770275132)",CHICAGO,IL,60642
2232880,2911 W W 47TH ST,41.8076606,-87.697469,"(41.8076606,-87.697469)",CHICAGO,IL,60632
2229372,211`7 W FARRAGUT AVE,41.9769295,-87.6803794,"(41.9769295,-87.6803794)",CHICAGO,IL,60625
2232835,5255 S State ST,41.7995035,-87.625015,"(41.7995035,-87.625015)",CHICAGO,IL,60609
2240860,3625 S Hoyne,41.8276402,-87.6773181,"(41.8276402,-87.6773181)",CHICAGO,IL,60609
2223113,5415 S Union AVE,41.7957456,-87.641884,"(41.7957456,-87.641884)",CHICAGO,IL,60609
2232920,5208 N LINCOLN AVE AVE,41.97626169999999,-87.6928181,"(41.97626169999999,-87.6928181)",CHICAGO,IL,60625
2060038,950 ESTES CT,42.0027309,-88.1025879,"(42.0027309,-88.1025879)",SCHAUMBURG,IL,60193
2229236,13100 S Doty,41.6755502,-87.6017907,"(41.6755502,-87.6017907)",CHICAGO,IL,60827
2229315,4000 N O'HARE FIELD,41.9802588,-87.9089858,"(41.9802588,-87.9089858)",CHICAGO,IL,60666
2240362,5114 S Elizabeth ST,41.8000688,-87.6565647,"(41.8000688,-87.6565647)",CHICAGO,IL,60609
2214098,150 RIVERSIDE PLZ,41.8825427,-87.638745,"(41.8825427,-87.638745)",CHICAGO,IL,60606
2240337,379 LUELLA AVE,41.6260319,-87.5674821,"(41.6260319,-87.5674821)",CALUMET CITY,IL,60409
2243252,6657 S Kimbark AVE,41.7737472,-87.5940266,"(41.7737472,-87.5940266)",CHICAGO,IL,60637
2222245,400 E WATER ST,41.8866527,-87.6168349,"(41.8866527,-87.6168349)",CHICAGO,IL,60601
2185028,8756 S COMMERICAL AVE,41.7358618,-87.55158630000001,"(41.7358618,-87.55158630000001)",CHICAGO,IL,60617
2222446,950 ESTES CT,42.0027309,-88.1025879,"(42.0027309,-88.1025879)",SCHAUMBURG,IL,60193
2200428,4471 W LAWRENCE AVE,41.96799335620968,-87.74072634914224,"(41.96799335620968, -87.74072634914224)",CHICAGO,IL,60630
2370134,1148 N MILWAUKEE AVE,41.90249586026425,-87.66535770275132,"(41.90249586026425, -87.66535770275132)",CHICAGO,IL,60642
2222390,1017 S DELANO CT,41.8682202,-87.6328072,"(41.8682202,-87.6328072)",CHICAGO,IL,60605
2200316,25553 WOLFS CROSSING RD,41.6985586,-88.2440551,"(41.6985586,-88.2440551)",PLAINFIELD,IL,60585
2222692,4471 W LAWRENCE AVE,41.96799335620968,-87.74072634914224,"(41.96799335620968, -87.74072634914224)",CHICAGO,IL,60630
2166729,5350 W 38TH ST,41.823776,-87.7573204,"(41.823776,-87.7573204)",CICERO,IL,60804
2214009,1017 S DELANO CT,41.8682202,-87.6328072,"(41.8682202,-87.6328072)",CHICAGO,IL,60605
2169222,6237 S HALSTED PKWY,41.7804872,-87.6422731,"(41.7804872,-87.6422731)",CHICAGO,IL,60621
2166852,1020 W DEVON,41.9927051,-87.9994831,"(41.9927051,-87.9994831)",ELK GROVE VILLAGE,IL,60007
2181740,522 N MILWAUKEE AVE,41.89173286514732,-87.64865419293943,"(41.89173286514732, -87.64865419293943)",CHICAGO,IL,60642
2184414,25553 WOLFS CROSSING RD,41.6985586,-88.2440551,"(41.6985586,-88.2440551)",PLAINFIELD,IL,60585
2177099,950 ESTES CT,42.0027309,-88.1025879,"(42.0027309,-88.1025879)",SCHAUMBURG,IL,60193
2169606,6237 S HALSTED PKWY,41.7804872,-87.6422731,"(41.7804872,-87.6422731)",CHICAGO,IL,60621
2181226,239 GOLF MILL CENTER STE 322,42.050456,-87.8368115,"(42.050456,-87.8368115)",NILES NILES,IL,60714
2182044,951 W WISE RD,42.0043921,-88.1026741,"(42.0043921,-88.1026741)",SCHAUMBURG,IL,60193
2177103,239 GOLF MILL CENTER STE 322,42.050456,-87.8368115,"(42.050456,-87.8368115)",NILES NILES,IL,60714
2169216,6040 N Kilpatrick AVE,41.9912004,-87.7464722,"(41.9912004,-87.7464722)",CHICAGO,IL,60646
2169328,8601 W FOSTER AVE,41.9728267,-87.841588,"(41.9728267,-87.841588)",CHICAGO,IL,60656
2159283,1223 N ROSSELL,41.9076607,-87.786107,"(41.9076607,-87.786107)",OAK PARK,IL,60302
2181395,522 N MILWAUKEE AVE,41.89173286514732,-87.64865419293943,"(41.89173286514732, -87.64865419293943)",CHICAGO,IL,60642
2170127,1460 N KINGSBURY ST,41.907542938729264,-87.6515037774827,"(41.907542938729264, -87.6515037774827)",CHICAGO,IL,60642
2159820,2332 S Western,41.849557,-87.68695629999999,"(41.849557,-87.68695629999999)",CHICAGO,IL,60608
2181528,1010 S DELANO CT,41.8682202,-87.6328072,"(41.8682202,-87.6328072)",CHICAGO,IL,60605
2117185,5114 S Elizabeth ST,41.8000688,-87.6565647,"(41.8000688,-87.6565647)",CHICAGO,IL,60609
2166747,5350 W 38TH ST,41.823776,-87.7573204,"(41.823776,-87.7573204)",CICERO,IL,60804
2181393,522 N MILWAUKEE AVE,41.89173286514732,-87.64865419293943,"(41.89173286514732, -87.64865419293943)",CHICAGO,IL,60642
2177149,4000 N O'HARE FIELD,41.9802588,-87.9089858,"(41.9802588,-87.9089858)",CHICAGO,IL,60666
2176724,5516 S Maplewood AVE,41.7928811,-87.6882064,"(41.7928811,-87.6882064)",CHICAGO,IL,60629
2169352,1438 W CORTLAND ST,41.916996072966775,-87.6645967198223,"(41.916996072966775, -87.6645967198223)",CHICAGO,IL,60642
2181738,522 N MILWAUKEE AVE,41.89173286514732,-87.64865419293943,"(41.89173286514732, -87.64865419293943)",CHICAGO,IL,60642
2176599,5516 S Maplewood AVE,41.7928811,-87.6882064,"(41.7928811,-87.6882064)",CHICAGO,IL,60629
2150895,1744 W Pryor,41.6908645,-87.6629395,"(41.6908645,-87.6629395)",CHICAGO,IL,60643
2170068,1625 CHICAGO AVE,42.047065,-87.6789663,"(42.047065,-87.6789663)",EVANSTON,IL,60201
2045300,1625 CHICAGO AVE,42.047065,-87.6789663,"(42.047065,-87.6789663)",EVANSTON,IL,60201
2176826,5516 S Maplewood AVE,41.7928811,-87.6882064,"(41.7928811,-87.6882064)",CHICAGO,IL,60629
2167124,4934 S Wabash,41.8046516,-87.6255393,"(41.8046516,-87.6255393)",CHICAGO,IL,60615
2130083,3355 S DR. MARTIN LUTHER KING DR,41.833293768956864,-87.6168573403182,"(41.833293768956864, -87.6168573403182)",CHICAGO,IL,60616
2150735,5630 S Rockwell AVE,41.79098279999999,-87.6895972,"(41.79098279999999,-87.6895972)",CHICAGO,IL,60629
2129618,6237 S HALSTED PKWY,41.7804872,-87.6422731,"(41.7804872,-87.6422731)",CHICAGO,IL,60621
2150781,6634 W RAVEN ST,41.9946144,-87.7926097,"(41.9946144,-87.7926097)",CHICAGO,IL,60631
2145912,6011 S Rockwell AVE,41.7840433,-87.6883007,"(41.7840433,-87.6883007)",CHICAGO,IL,60629
2145007,1438 W CORTLAND ST,41.916996072966775,-87.6645967198223,"(41.916996072966775, -87.6645967198223)",CHICAGO,IL,60642
2151010,6237 S HALSTED PKWY,41.7804872,-87.6422731,"(41.7804872,-87.6422731)",CHICAGO,IL,60621
2129247,6237 S HALSTED PKWY,41.7804872,-87.6422731,"(41.7804872,-87.6422731)",CHICAGO,IL,60621
2145008,1438 W CORTLAND ST,41.916996072966775,-87.6645967198223,"(41.916996072966775, -87.6645967198223)",CHICAGO,IL,60642
2144509,7451 W 100TH PL,41.7093496,-87.8094842,"(41.7093496,-87.8094842)",BRIDGEVIEW,IL,60455
2145874,6011 S Rockwell AVE,41.7840433,-87.6883007,"(41.7840433,-87.6883007)",CHICAGO,IL,60629
2145238,5516 S Maplewood AVE,41.7928811,-87.6882064,"(41.7928811,-87.6882064)",CHICAGO,IL,60629
2150427,3424 S State ST,41.8321532,-87.6272509,"(41.8321532,-87.6272509)",CHICAGO,IL,60616
2150596,6237 S HALSTED PKWY,41.7804872,-87.6422731,"(41.7804872,-87.6422731)",CHICAGO,IL,60621
2116413,5114 S Elizabeth ST,41.8000688,-87.6565647,"(41.8000688,-87.6565647)",CHICAGO,IL,60609
2145486,5900 N Nina AVE,41.9890858,-87.8026557,"(41.9890858,-87.8026557)",CHICAGO,IL,60631
2135962,1930 S ARCHER AVE,41.85603329491608,-87.62852774627484,"(41.85603329491608, -87.62852774627484)",CHICAGO,IL,60616
2082141,1800 W CULYER AVE,41.9554507,-87.674528,"(41.9554507,-87.674528)",CHICAGO,IL,60613
2103069,4000 N O'HARE FIELD,41.9802588,-87.9089858,"(41.9802588,-87.9089858)",CHICAGO,IL,60666
2116660,13100 S Doty,41.6755502,-87.6017907,"(41.6755502,-87.6017907)",CHICAGO,IL,60827
2103035,5255 S State ST,41.7995035,-87.625015,"(41.7995035,-87.625015)",CHICAGO,IL,60609
2104891,506 N Milwaukee AVE,41.89131314887029,-87.64800866711568,"(41.89131314887029, -87.64800866711568)",CHICAGO,IL,60642
2088300,3355 S DR. MARTIN LUTHER KING DR,41.833293768956864,-87.6168573403182,"(41.833293768956864, -87.6168573403182)",CHICAGO,IL,60616
2104559,5255 S State ST,41.7995035,-87.625015,"(41.7995035,-87.625015)",CHICAGO,IL,60609
2102717,6657 S Kimbark AVE,41.7737472,-87.5940266,"(41.7737472,-87.5940266)",CHICAGO,IL,60637
2116702,5114 S Elizabeth ST,41.8000688,-87.6565647,"(41.8000688,-87.6565647)",CHICAGO,IL,60609
2088790,1460 N KINGSBURY ST,41.907542938729264,-87.6515037774827,"(41.907542938729264, -87.6515037774827)",CHICAGO,IL,60642
2099101,1017 S DELANO CT,41.8682202,-87.6328072,"(41.8682202,-87.6328072)",CHICAGO,IL,60605
2116546,506 N Milwaukee AVE,41.89131314887029,-87.64800866711568,"(41.89131314887029, -87.64800866711568)",CHICAGO,IL,60642
2098256,500 N MILWAUKEE AVE,41.89114627169734,-87.64777460811625,"(41.89114627169734, -87.64777460811625)",CHICAGO,IL,60642
2088567,1460 N KINGSBURY ST,41.907542938729264,-87.6515037774827,"(41.907542938729264, -87.6515037774827)",CHICAGO,IL,60642
2104981,5415 S Union AVE,41.7957456,-87.641884,"(41.7957456,-87.641884)",CHICAGO,IL,60609
2102899,3625 S Hoyne,41.8276402,-87.6773181,"(41.8276402,-87.6773181)",CHICAGO,IL,60609
2088789,1460 N KINGSBURY ST,41.907542938729264,-87.6515037774827,"(41.907542938729264, -87.6515037774827)",CHICAGO,IL,60642
2102787,7141 S Morgan ST,41.7636974,-87.6486262,"(41.7636974,-87.6486262)",CHICAGO,IL,60621
2079098,239 GOLF MILL CENTER STE 322,42.050456,-87.8368115,"(42.050456,-87.8368115)",NILES NILES,IL,60714
2098526,1017 S DELANO CT,41.8682202,-87.6328072,"(41.8682202,-87.6328072)",CHICAGO,IL,60605
2081625,1900 MAYWOOD DR,41.877247,-87.856215,"(41.877247,-87.856215)",MAYWOOD,IL,60153
2088572,1460 N KINGSBURY ST,41.907542938729264,-87.6515037774827,"(41.907542938729264, -87.6515037774827)",CHICAGO,IL,60642
2064793,6237 S HALSTED PKWY,41.7804872,-87.6422731,"(41.7804872,-87.6422731)",CHICAGO,IL,60621
2078297,2911 W W 47TH ST,41.8076606,-87.697469,"(41.8076606,-87.697469)",CHICAGO,IL,60632
2060048,950 ESTES CT,42.0027309,-88.1025879,"(42.0027309,-88.1025879)",SCHAUMBURG,IL,60193
2072115,1401 S CALIFORNIA AVE,41.8622623,-87.6951383,"(41.8622623,-87.6951383)",CHICAGO,IL,60608
2081374,500 N MILWAUKEE AVE,41.89114627169734,-87.64777460811625,"(41.89114627169734, -87.64777460811625)",CHICAGO,IL,60642
2064614,912 N ASHLAND AVE,41.898289314303305,-87.66750000594696,"(41.898289314303305, -87.66750000594696)",CHICAGO,IL,60622
2071348,912 N ASHLAND AVE,41.898289314303305,-87.66750000594696,"(41.898289314303305, -87.66750000594696)",CHICAGO,IL,60622
2081366,8125 S HALSTED ST,41.74623627171974,-87.64376603783273,"(41.74623627171974, -87.64376603783273)",CHICAGO,IL,60620
2064674,950 ESTES CT,42.0027309,-88.1025879,"(42.0027309,-88.1025879)",SCHAUMBURG,IL,60193
2064263,1900 S MAYWOOD DR,41.877247,-87.856215,"(41.877247,-87.856215)",MAYWOOD,IL,60153
2071351,912 N ASHLAND AVE,41.898289314303305,-87.66750000594696,"(41.898289314303305, -87.66750000594696)",CHICAGO,IL,60622
2064639,8756 S COMMERICAL AVE,41.7358618,-87.55158630000001,"(41.7358618,-87.55158630000001)",CHICAGO,IL,60617
2064565,950 ESTES CT,42.0027309,-88.1025879,"(42.0027309,-88.1025879)",SCHAUMBURG,IL,60193
2064612,912 N ASHLAND AVE,41.898289314303305,-87.66750000594696,"(41.898289314303305, -87.66750000594696)",CHICAGO,IL,60622
2078801,8125 S HALSTED ST,41.74623627171974,-87.64376603783273,"(41.74623627171974, -87.64376603783273)",CHICAGO,IL,60620
2064655,950 ESTES CT,42.0027309,-88.1025879,"(42.0027309,-88.1025879)",SCHAUMBURG,IL,60193
2060059,37 SHERWOOD TER,42.2708197,-87.8671569,"(42.2708197,-87.8671569)",LAKE BLUFF,IL,60044
2009714,4934 S Wabash,41.8046516,-87.6255393,"(41.8046516,-87.6255393)",CHICAGO,IL,60615
2064921,950 ESTES CT,42.0027309,-88.1025879,"(42.0027309,-88.1025879)",SCHAUMBURG,IL,60193
2060169,150 RIVERSIDE PLZ,41.8825427,-87.638745,"(41.8825427,-87.638745)",CHICAGO,IL,60606
2060050,1625 CHICAGO AVE,42.047065,-87.6789663,"(42.047065,-87.6789663)",EVANSTON,IL,60201
2064915,1625 CHICAGO AVE,42.047065,-87.6789663,"(42.047065,-87.6789663)",EVANSTON,IL,60201
2050912,1900 S MAYWOOD DR,41.877247,-87.856215,"(41.877247,-87.856215)",MAYWOOD,IL,60153
2009301,4934 S Wabash,41.8046516,-87.6255393,"(41.8046516,-87.6255393)",CHICAGO,IL,60615
2009745,9416 W IRVING PARK RD,41.9530459,-87.85369,"(41.9530459,-87.85369)",SCHILLER PARK,IL,60176
1996054,1020 W DEVON,41.9927051,-87.9994831,"(41.9927051,-87.9994831)",ELK GROVE VILLAGE,IL,60007
2050181,2332 S Western,41.849557,-87.68695629999999,"(41.849557,-87.68695629999999)",CHICAGO,IL,60608
2050554,132 E VAN BUREN ST,41.8770575,-87.6231868,"(41.8770575,-87.6231868)",CHICAGO,IL,60605
2009615,6237 S HALSTED PKWY,41.7804872,-87.6422731,"(41.7804872,-87.6422731)",CHICAGO,IL,60621
2049902,1017 S DELANO CT,41.8682202,-87.6328072,"(41.8682202,-87.6328072)",CHICAGO,IL,60605
2009394,853 S ROSELLE RD,42.01113,-88.0799213,"(42.01113,-88.0799213)",SCHAUMBURG,IL,60193
2009387,1223 N ROSSELL,41.9076607,-87.786107,"(41.9076607,-87.786107)",OAK PARK,IL,60302
2015288,6040 N Kilpatrick AVE,41.9912004,-87.7464722,"(41.9912004,-87.7464722)",CHICAGO,IL,60646
2051025,951 W WISE RD,42.0043921,-88.1026741,"(42.0043921,-88.1026741)",SCHAUMBURG,IL,60193
2059448,4000 N O'HARE FIELD,41.9802588,-87.9089858,"(41.9802588,-87.9089858)",CHICAGO,IL,60666
2009741,9416 W IRVING PARK RD,41.9530459,-87.85369,"(41.9530459,-87.85369)",SCHILLER PARK,IL,60176
2010136,1020 W DEVON,41.9927051,-87.9994831,"(41.9927051,-87.9994831)",ELK GROVE VILLAGE,IL,60007
1983207,8125 S HALSTED ST,41.74623627171974,-87.64376603783273,"(41.74623627171974, -87.64376603783273)",CHICAGO,IL,60620
2028665,239 GOLF MILL CENTER STE 322,42.050456,-87.8368115,"(42.050456,-87.8368115)",NILES NILES,IL,60714
1990105,6011 S Rockwell AVE,41.7840433,-87.6883007,"(41.7840433,-87.6883007)",CHICAGO,IL,60629
2010155,6237 S HALSTED PKWY,41.7804872,-87.6422731,"(41.7804872,-87.6422731)",CHICAGO,IL,60621
2028354,6237 S HALSTED PKWY,41.7804872,-87.6422731,"(41.7804872,-87.6422731)",CHICAGO,IL,60621
1989952,8601 W FOSTER AVE,41.9728267,-87.841588,"(41.9728267,-87.841588)",CHICAGO,IL,60656
1978518,1625 CHICAGO AVE,42.047065,-87.6789663,"(42.047065,-87.6789663)",EVANSTON,IL,60201
1981673,6634 W RAVEN ST,41.9946144,-87.7926097,"(41.9946144,-87.7926097)",CHICAGO,IL,60631
1981621,1625 CHICAGO AVE,42.047065,-87.6789663,"(42.047065,-87.6789663)",EVANSTON,IL,60201
1981516,5900 N Nina AVE,41.9890858,-87.8026557,"(41.9890858,-87.8026557)",CHICAGO,IL,60631
1982109,5516 S Maplewood AVE,41.7928811,-87.6882064,"(41.7928811,-87.6882064)",CHICAGO,IL,60629
1995223,1020 W DEVON,41.9927051,-87.9994831,"(41.9927051,-87.9994831)",ELK GROVE VILLAGE,IL,60007
1976769,627 ESTES AVE,42.0027986,-88.0962071,"(42.0027986,-88.0962071)",SCHAUMBURG,IL,60193
1990116,5630 S Rockwell AVE,41.79098279999999,-87.6895972,"(41.79098279999999,-87.6895972)",CHICAGO,IL,60629
1982677,1010 S DELANO CT,41.8682202,-87.6328072,"(41.8682202,-87.6328072)",CHICAGO,IL,60605
1976794,7770 FRONTAGE RD,42.0231952,-87.7679247,"(42.0231952,-87.7679247)",SKOKIE,IL,60077
1989547,8601 W FOSTER AVE,41.9728267,-87.841588,"(41.9728267,-87.841588)",CHICAGO,IL,60656
1977163,1625 CHICAGO AVE,42.047065,-87.6789663,"(42.047065,-87.6789663)",EVANSTON,IL,60201
1979146,1625 CHICAGO AVE,42.047065,-87.6789663,"(42.047065,-87.6789663)",EVANSTON,IL,60201
1981963,1625 CHICAGO AVE,42.047065,-87.6789663,"(42.047065,-87.6789663)",EVANSTON,IL,60201
1983163,3838 W 49TH ST,41.8043798,-87.7204015,"(41.8043798,-87.7204015)",CHICAGO,IL,60632
1995362,3424 S State ST,41.8321532,-87.6272509,"(41.8321532,-87.6272509)",CHICAGO,IL,60616
1977124,2324 N FREMONT ST,41.9245121,-87.6513037,"(41.9245121,-87.6513037)",CHICAGO,IL,60614
1989593,8125 S HALSTED ST,41.74623627171974,-87.64376603783273,"(41.74623627171974, -87.64376603783273)",CHICAGO,IL,60620
1989537,1744 W Pryor,41.6908645,-87.6629395,"(41.6908645,-87.6629395)",CHICAGO,IL,60643
1989406,1509 SIBLEY BLVD,41.6226995,-87.562008,"(41.6226995,-87.562008)",CALUMET CITY,IL,60409
1982714,950 ESTES CT,42.0027309,-88.1025879,"(42.0027309,-88.1025879)",SCHAUMBURG,IL,60193
1967168,6650 S Ellis AVE,41.7742214,-87.6012716,"(41.7742214,-87.6012716)",CHICAGO,IL,60637
1955318,7141 S Morgan ST,41.7636974,-87.6486262,"(41.7636974,-87.6486262)",CHICAGO,IL,60621
1971023,7037 S Rhodes AVE,41.7666885,-87.6113124,"(41.7666885,-87.6113124)",CHICAGO,IL,60637
1955277,3625 S Hoyne,41.8276402,-87.6773181,"(41.8276402,-87.6773181)",CHICAGO,IL,60609
1955294,5415 S Union AVE,41.7957456,-87.641884,"(41.7957456,-87.641884)",CHICAGO,IL,60609
1960841,3410 MAIN ST,42.0337316,-87.7138039,"(42.0337316,-87.7138039)",SKOKIE,IL,60076
1665235,1010 S DELANO CT,41.8682202,-87.6328072,"(41.8682202,-87.6328072)",CHICAGO,IL,60605
1970230,950 ESTES CT,42.0027309,-88.1025879,"(42.0027309,-88.1025879)",SCHAUMBURG,IL,60193
1967061,4000 N O'HARE FIELD,41.9802588,-87.9089858,"(41.9802588,-87.9089858)",CHICAGO,IL,60666
1965359,3410 MAIN ST,42.0337316,-87.7138039,"(42.0337316,-87.7138039)",SKOKIE,IL,60076
1966734,2425 E 71ST ST,41.7660867,-87.5653021,"(41.7660867,-87.5653021)",CHICAGO,IL,60649
1960352,5255 S State ST,41.7995035,-87.625015,"(41.7995035,-87.625015)",CHICAGO,IL,60609
1746301,4619 S Wolcott AVE,41.8096282,-87.6719638,"(41.8096282,-87.6719638)",CHICAGO,IL,60609
1746307,4619 S Wolcott AVE,41.8096282,-87.6719638,"(41.8096282,-87.6719638)",CHICAGO,IL,60609
1966841,400 E WATER ST,41.8866527,-87.6168349,"(41.8866527,-87.6168349)",CHICAGO,IL,60601
1746323,7037 S Rhodes AVE,41.7666885,-87.6113124,"(41.7666885,-87.6113124)",CHICAGO,IL,60637
1955350,7141 S Morgan ST,41.7636974,-87.6486262,"(41.7636974,-87.6486262)",CHICAGO,IL,60621
1955280,5415 S Union AVE,41.7957456,-87.641884,"(41.7957456,-87.641884)",CHICAGO,IL,60609
1976467,239 GOLF MILL CENTER STE 322,42.050456,-87.8368115,"(42.050456,-87.8368115)",NILES NILES,IL,60714
1966981,6657 S Kimbark AVE,41.7737472,-87.5940266,"(41.7737472,-87.5940266)",CHICAGO,IL,60637
1961215,13100 S Doty,41.6755502,-87.6017907,"(41.6755502,-87.6017907)",CHICAGO,IL,60827
1955241,5114 S Elizabeth ST,41.8000688,-87.6565647,"(41.8000688,-87.6565647)",CHICAGO,IL,60609
1937672,950 ESTES CT,42.0027309,-88.1025879,"(42.0027309,-88.1025879)",SCHAUMBURG,IL,60193
1946499,4000 N O'HARE FIELD,41.9802588,-87.9089858,"(41.9802588,-87.9089858)",CHICAGO,IL,60666
1948975,6237 S HALSTED PKWY,41.7804872,-87.6422731,"(41.7804872,-87.6422731)",CHICAGO,IL,60621
1937733,1017 S DELANO CT,41.8682202,-87.6328072,"(41.8682202,-87.6328072)",CHICAGO,IL,60605
1946937,4000 N O'HARE FIELD,41.9802588,-87.9089858,"(41.9802588,-87.9089858)",CHICAGO,IL,60666
1932706,1010 S DELANO CT,41.8682202,-87.6328072,"(41.8682202,-87.6328072)",CHICAGO,IL,60605
1763756,5630 S Rockwell AVE,41.79098279999999,-87.6895972,"(41.79098279999999,-87.6895972)",CHICAGO,IL,60629
1932710,1010 S DELANO CT,41.8682202,-87.6328072,"(41.8682202,-87.6328072)",CHICAGO,IL,60605
1932120,6040 N Kilpatrick AVE,41.9912004,-87.7464722,"(41.9912004,-87.7464722)",CHICAGO,IL,60646
1752013,8756 S COMMERICAL AVE,41.7358618,-87.55158630000001,"(41.7358618,-87.55158630000001)",CHICAGO,IL,60617
1763521,2425 E 71ST ST,41.7660867,-87.5653021,"(41.7660867,-87.5653021)",CHICAGO,IL,60649
1932934,1010 S DELANO CT,41.8682202,-87.6328072,"(41.8682202,-87.6328072)",CHICAGO,IL,60605
1751952,3838 W 49TH ST,41.8043798,-87.7204015,"(41.8043798,-87.7204015)",CHICAGO,IL,60632
1763293,3838 W 49TH ST,41.8043798,-87.7204015,"(41.8043798,-87.7204015)",CHICAGO,IL,60632
1932942,1010 S DELANO CT,41.8682202,-87.6328072,"(41.8682202,-87.6328072)",CHICAGO,IL,60605
1633007,1744 W Pryor,41.6908645,-87.6629395,"(41.6908645,-87.6629395)",CHICAGO,IL,60643
1751450,1020 W DEVON,41.9927051,-87.9994831,"(41.9927051,-87.9994831)",ELK GROVE VILLAGE,IL,60007
1770599,239 GOLF MILL CENTER STE 322,42.050456,-87.8368115,"(42.050456,-87.8368115)",NILES NILES,IL,60714
1734398,4934 S Wabash BLDG,41.8046515,-87.62550949999999,"(41.8046515,-87.62550949999999)",CHICAGO,IL,60615
1631383,8125 S HALSTED ST,41.74623627171974,-87.64376603783273,"(41.74623627171974, -87.64376603783273)",CHICAGO,IL,60620
1632682,1744 W Pryor,41.6908645,-87.6629395,"(41.6908645,-87.6629395)",CHICAGO,IL,60643
1734653,4934 S Wabash BLDG,41.8046515,-87.62550949999999,"(41.8046515,-87.62550949999999)",CHICAGO,IL,60615
1734666,4926 N RIVER RD,41.9689976,-87.8623557,"(41.9689976,-87.8623557)",SCHILLER PARK,IL,60176
1734665,4934 S Wabash,41.8046516,-87.6255393,"(41.8046516,-87.6255393)",CHICAGO,IL,60615
1609599,8601 W FOSTER AVE,41.9728267,-87.841588,"(41.9728267,-87.841588)",CHICAGO,IL,60656
1763706,1401 S CALIFORNIA AVE,41.8622623,-87.6951383,"(41.8622623,-87.6951383)",CHICAGO,IL,60608
2624381,324 W JACKSON BLVD,41.8782034961044,-87.63594035379518,"(41.8782034961044, -87.63594035379518)",CHICAGO,IL,60606
1657223,6237 S HALSTED PKWY,41.7804872,-87.6422731,"(41.7804872,-87.6422731)",CHICAGO,IL,60621
1746214,6237 S HALSTED PKWY,41.7804872,-87.6422731,"(41.7804872,-87.6422731)",CHICAGO,IL,60621
1734408,4934 S Wabash,41.8046516,-87.6255393,"(41.8046516,-87.6255393)",CHICAGO,IL,60615
1584109,3901 S DR MARTIN LUTHER KING JR,41.823618,-87.616512,"(41.823618,-87.616512)",CHICAGO,IL,60653
1735136,6011 S Rockwell AVE,41.7840433,-87.6883007,"(41.7840433,-87.6883007)",CHICAGO,IL,60629
1657227,6237 S HALSTED PKWY,41.7804872,-87.6422731,"(41.7804872,-87.6422731)",CHICAGO,IL,60621
1631260,3424 S State ST,41.8321532,-87.6272509,"(41.8321532,-87.6272509)",CHICAGO,IL,60616
1751619,1223 N ROSSELL,41.9076607,-87.786107,"(41.9076607,-87.786107)",OAK PARK,IL,60302
1588391,3625 S Hoyne,41.8276402,-87.6773181,"(41.8276402,-87.6773181)",CHICAGO,IL,60609
1734950,5516 S Maplewood AVE,41.7928811,-87.6882064,"(41.7928811,-87.6882064)",CHICAGO,IL,60629
1631929,6634 W RAVEN ST,41.9946144,-87.7926097,"(41.9946144,-87.7926097)",CHICAGO,IL,60631
1734651,7451 W 100TH PL,41.7093496,-87.8094842,"(41.7093496,-87.8094842)",BRIDGEVIEW,IL,60455
1386530,7037 S Rhodes AVE,41.7666885,-87.6113124,"(41.7666885,-87.6113124)",CHICAGO,IL,60637
1578617,5255 S State ST,41.7995035,-87.625015,"(41.7995035,-87.625015)",CHICAGO,IL,60609
1578427,1017 S DELANO CT,41.8682202,-87.6328072,"(41.8682202,-87.6328072)",CHICAGO,IL,60605
1513262,13100 S Doty,41.6755502,-87.6017907,"(41.6755502,-87.6017907)",CHICAGO,IL,60827
1386512,6657 S Kimbark AVE,41.7737472,-87.5940266,"(41.7737472,-87.5940266)",CHICAGO,IL,60637
1583417,5415 S Union AVE,41.7957456,-87.641884,"(41.7957456,-87.641884)",CHICAGO,IL,60609
1578875,7141 S Morgan ST,41.7636974,-87.6486262,"(41.7636974,-87.6486262)",CHICAGO,IL,60621
1386474,6650 S Ellis AVE,41.7742214,-87.6012716,"(41.7742214,-87.6012716)",CHICAGO,IL,60637
1579014,5114 S Elizabeth ST,41.8000688,-87.6565647,"(41.8000688,-87.6565647)",CHICAGO,IL,60609
1588422,6237 S HALSTED PKWY,41.7804872,-87.6422731,"(41.7804872,-87.6422731)",CHICAGO,IL,60621
1569213,4619 S Wolcott AVE,41.8096282,-87.6719638,"(41.8096282,-87.6719638)",CHICAGO,IL,60609
1386486,6657 S Kimbark AVE,41.7737472,-87.5940266,"(41.7737472,-87.5940266)",CHICAGO,IL,60637
1386498,7037 S Rhodes AVE,41.7666885,-87.6113124,"(41.7666885,-87.6113124)",CHICAGO,IL,60637
1579073,5415 S Union AVE,41.7957456,-87.641884,"(41.7957456,-87.641884)",CHICAGO,IL,60609
1386516,7037 S Rhodes AVE,41.7666885,-87.6113124,"(41.7666885,-87.6113124)",CHICAGO,IL,60637
1584155,400 E WATER ST,41.8866527,-87.6168349,"(41.8866527,-87.6168349)",CHICAGO,IL,60601
1561892,4000 N O'HARE FIELD,41.9802588,-87.9089858,"(41.9802588,-87.9089858)",CHICAGO,IL,60666
1575242,2535 WAUKEGAN RD,42.1981421,-87.8603182,"(42.1981421,-87.8603182)",BANNOCKBURNDEERFIELD,IL,60015
1559972,4000 N O'HARE FIELD,41.9802588,-87.9089858,"(41.9802588,-87.9089858)",CHICAGO,IL,60666
1425186,4000 N O'HARE FIELD,41.9802588,-87.9089858,"(41.9802588,-87.9089858)",CHICAGO,IL,60666
2534542,13100 S Doty,41.6755502,-87.6017907,"(41.6755502,-87.6017907)",CHICAGO,IL,60827
1537601,3424 S State ST,41.8321532,-87.6272509,"(41.8321532,-87.6272509)",CHICAGO,IL,60616
1546327,6237 S HALSTED PKWY,41.7804872,-87.6422731,"(41.7804872,-87.6422731)",CHICAGO,IL,60621
1453938,2332 S Western,41.849557,-87.68695629999999,"(41.849557,-87.68695629999999)",CHICAGO,IL,60608
1537662,7770 FRONTAGE RD,42.0231952,-87.7679247,"(42.0231952,-87.7679247)",SKOKIE,IL,60077
1386148,4934 S Wabash BLDG,41.8046515,-87.62550949999999,"(41.8046515,-87.62550949999999)",CHICAGO,IL,60615
1559251,8125 S HALSTED ST,41.74623627171974,-87.64376603783273,"(41.74623627171974, -87.64376603783273)",CHICAGO,IL,60620
1386146,4934 S Wabash,41.8046516,-87.6255393,"(41.8046516,-87.6255393)",CHICAGO,IL,60615
1386158,4934 S Wabash BLDG,41.8046515,-87.62550949999999,"(41.8046515,-87.62550949999999)",CHICAGO,IL,60615
1546475,7770 FRONTAGE RD,42.0231952,-87.7679247,"(42.0231952,-87.7679247)",SKOKIE,IL,60077
1547148,108 W PARK,41.8992927,-87.9405057,"(41.8992927,-87.9405057)",ELMHURST,IL,60126
1537270,8601 W FOSTER AVE,41.9728267,-87.841588,"(41.9728267,-87.841588)",CHICAGO,IL,60656
1546247,1223 N ROSSELL,41.9076607,-87.786107,"(41.9076607,-87.786107)",OAK PARK,IL,60302
1447784,405 N Wasbash AVE,41.8896989,-87.6260686,"(41.8896989,-87.6260686)",CHICAGO,IL,60611
1561246,3838 W 49TH ST,41.8043798,-87.7204015,"(41.8043798,-87.7204015)",CHICAGO,IL,60632
1497492,4619 S Wolcott AVE,41.8096282,-87.6719638,"(41.8096282,-87.6719638)",CHICAGO,IL,60609
1537536,8601 W FOSTER AVE,41.9728267,-87.841588,"(41.9728267,-87.841588)",CHICAGO,IL,60656
1386157,4934 S Wabash,41.8046516,-87.6255393,"(41.8046516,-87.6255393)",CHICAGO,IL,60615
1537206,5900 N Nina AVE,41.9890858,-87.8026557,"(41.9890858,-87.8026557)",CHICAGO,IL,60631
1537962,2535 WAUKEGAN RD,42.1981421,-87.8603182,"(42.1981421,-87.8603182)",BANNOCKBURNDEERFIELD,IL,60015
1537487,1800 W CULYER AVE,41.9554507,-87.674528,"(41.9554507,-87.674528)",CHICAGO,IL,60613
1523106,6011 S Rockwell AVE,41.7840433,-87.6883007,"(41.7840433,-87.6883007)",CHICAGO,IL,60629
1515897,5516 S Maplewood AVE,41.7928811,-87.6882064,"(41.7928811,-87.6882064)",CHICAGO,IL,60629
1532362,1744 W Pryor,41.6908645,-87.6629395,"(41.6908645,-87.6629395)",CHICAGO,IL,60643
1527517,6040 N Kilpatrick AVE,41.9912004,-87.7464722,"(41.9912004,-87.7464722)",CHICAGO,IL,60646
1515291,743 W DRIVING PARK RD,41.9577761,-87.6556468,"(41.9577761,-87.6556468)",CHICAGO,IL,60613
1418827,2 N RIVERSIDEPLZ PLZ,41.886053,-87.6359543,"(41.886053,-87.6359543)",CHICAGO,IL,60606
1523196,2320-2322 S MICHIGAN AVE,41.850453739981155,-87.62389126353149,"(41.850453739981155, -87.62389126353149)",CHICAGO,IL,60616
1528195,6634 W RAVEN ST,41.9946144,-87.7926097,"(41.9946144,-87.7926097)",CHICAGO,IL,60631
1527974,2425 E 71ST ST,41.7660867,-87.5653021,"(41.7660867,-87.5653021)",CHICAGO,IL,60649
1532411,5630 S Rockwell AVE,41.79098279999999,-87.6895972,"(41.79098279999999,-87.6895972)",CHICAGO,IL,60629
1523007,853 S ROSELLE RD,42.01113,-88.0799213,"(42.01113,-88.0799213)",SCHAUMBURG,IL,60193
1522899,6011 S Rockwell AVE,41.7840433,-87.6883007,"(41.7840433,-87.6883007)",CHICAGO,IL,60629
1522821,853 S ROSELLE RD,42.01113,-88.0799213,"(42.01113,-88.0799213)",SCHAUMBURG,IL,60193
1325391,6237 S HALSTED PKWY,41.7804872,-87.6422731,"(41.7804872,-87.6422731)",CHICAGO,IL,60621
1498112,5101-5109 S HALSTED ST,41.80154012834072,-87.64519698905924,"(41.80154012834072, -87.64519698905924)",CHICAGO,IL,60609
1372664,400 E WATER ST,41.8866527,-87.6168349,"(41.8866527,-87.6168349)",CHICAGO,IL,60601
1387730,13100 S Doty,41.6755502,-87.6017907,"(41.6755502,-87.6017907)",CHICAGO,IL,60827
1496967,5114 S Elizabeth ST,41.8000688,-87.6565647,"(41.8000688,-87.6565647)",CHICAGO,IL,60609
1496874,7037 S Rhodes AVE,41.7666885,-87.6113124,"(41.7666885,-87.6113124)",CHICAGO,IL,60637
1497873,6650 S Ellis AVE,41.7742214,-87.6012716,"(41.7742214,-87.6012716)",CHICAGO,IL,60637
1497352,4245 W ARMITAGE AVE,41.916968141610525,-87.7332747911865,"(41.916968141610525, -87.7332747911865)",CHICAGO,IL,60639
1497766,6657 S Kimbark AVE,41.7737472,-87.5940266,"(41.7737472,-87.5940266)",CHICAGO,IL,60637
1307736,7141 S Morgan ST,41.7636974,-87.6486262,"(41.7636974,-87.6486262)",CHICAGO,IL,60621
1307732,6237 S HALSTED PKWY,41.7804872,-87.6422731,"(41.7804872,-87.6422731)",CHICAGO,IL,60621
1307668,6237 S HALSTED PKWY,41.7804872,-87.6422731,"(41.7804872,-87.6422731)",CHICAGO,IL,60621
1496915,5415 S Union AVE,41.7957456,-87.641884,"(41.7957456,-87.641884)",CHICAGO,IL,60609
1497934,3625 S Hoyne,41.8276402,-87.6773181,"(41.8276402,-87.6773181)",CHICAGO,IL,60609
1497550,5255 S State ST,41.7995035,-87.625015,"(41.7995035,-87.625015)",CHICAGO,IL,60609
1447538,329 S FRANKLIN ST,41.87739707385008,-87.63504341455305,"(41.87739707385008, -87.63504341455305)",CHICAGO,IL,60606
1307673,6237 S HALSTED PKWY,41.7804872,-87.6422731,"(41.7804872,-87.6422731)",CHICAGO,IL,60621
1497500,5415 S Union AVE,41.7957456,-87.641884,"(41.7957456,-87.641884)",CHICAGO,IL,60609
1307687,6237 S HALSTED PKWY,41.7804872,-87.6422731,"(41.7804872,-87.6422731)",CHICAGO,IL,60621
1502028,5101-5109 S HALSTED ST,41.80154012834072,-87.64519698905924,"(41.80154012834072, -87.64519698905924)",CHICAGO,IL,60609
1497781,6650 S Ellis AVE,41.7742214,-87.6012716,"(41.7742214,-87.6012716)",CHICAGO,IL,60637
1424422,4000 N O'HARE FIELD,41.9802588,-87.9089858,"(41.9802588,-87.9089858)",CHICAGO,IL,60666
1493775,1509 SIBLEY BLVD,41.6226995,-87.562008,"(41.6226995,-87.562008)",CALUMET CITY,IL,60409
1490670,2936 W 85TH PL,41.7376459,-87.719391,"(41.7376459,-87.719391)",CHICAGO,IL,60652
1493248,108 W PARK,41.8992927,-87.9405057,"(41.8992927,-87.9405057)",ELMHURST,IL,60126
1387631,1509 SIBLEY BLVD,41.6226995,-87.562008,"(41.6226995,-87.562008)",CALUMET CITY,IL,60409
1493208,8125 S HALSTED ST,41.74623627171974,-87.64376603783273,"(41.74623627171974, -87.64376603783273)",CHICAGO,IL,60620
1493764,1020 W DEVON,41.9927051,-87.9994831,"(41.9927051,-87.9994831)",ELK GROVE VILLAGE,IL,60007
1152141,5630 S Rockwell AVE,41.79098279999999,-87.6895972,"(41.79098279999999,-87.6895972)",CHICAGO,IL,60629
1496490,627 ESTES AVE,42.0027986,-88.0962071,"(42.0027986,-88.0962071)",SCHAUMBURG,IL,60193
1490846,3838 W 49TH ST,41.8043798,-87.7204015,"(41.8043798,-87.7204015)",CHICAGO,IL,60632
1493580,1020 W DEVON,41.9927051,-87.9994831,"(41.9927051,-87.9994831)",ELK GROVE VILLAGE,IL,60007
1491136,8125 S HALSTED ST,41.74623627171974,-87.64376603783273,"(41.74623627171974, -87.64376603783273)",CHICAGO,IL,60620
1152140,6011 S Rockwell AVE,41.7840433,-87.6883007,"(41.7840433,-87.6883007)",CHICAGO,IL,60629
1459912,6634 W RAVEN ST,41.9946144,-87.7926097,"(41.9946144,-87.7926097)",CHICAGO,IL,60631
1307419,7141 S Morgan ST,41.7636974,-87.6486262,"(41.7636974,-87.6486262)",CHICAGO,IL,60621
1464217,7545 N PAULINA ST,42.01903180273219,-87.67345866417395,"(42.01903180273219, -87.67345866417395)",CHICAGO,IL,60626
1307451,6237 S HALSTED PKWY,41.7804872,-87.6422731,"(41.7804872,-87.6422731)",CHICAGO,IL,60621
1459758,5900 N Nina AVE,41.9890858,-87.8026557,"(41.9890858,-87.8026557)",CHICAGO,IL,60631
1418342,142 N BLOOMINGDALE RD,41.959958,-88.081554,"(41.959958,-88.081554)",BLOOMINGDALE,IL,60108
1435160,2332 S Western,41.849557,-87.68695629999999,"(41.849557,-87.68695629999999)",CHICAGO,IL,60608
1307418,7141 S Morgan ST,41.7636974,-87.6486262,"(41.7636974,-87.6486262)",CHICAGO,IL,60621
1459620,3424 S State ST,41.8321532,-87.6272509,"(41.8321532,-87.6272509)",CHICAGO,IL,60616
1418322,8601 W FOSTER AVE,41.9728267,-87.841588,"(41.9728267,-87.841588)",CHICAGO,IL,60656
1307285,6237 S HALSTED PKWY,41.7804872,-87.6422731,"(41.7804872,-87.6422731)",CHICAGO,IL,60621
1395582,1744 W Pryor,41.6908645,-87.6629395,"(41.6908645,-87.6629395)",CHICAGO,IL,60643
1372423,405 N Wasbash AVE,41.8896989,-87.6260686,"(41.8896989,-87.6260686)",CHICAGO,IL,60611
1395783,5350 W 38TH ST,41.823776,-87.7573204,"(41.823776,-87.7573204)",CICERO,IL,60804
1395446,1800 W CULYER AVE,41.9554507,-87.674528,"(41.9554507,-87.674528)",CHICAGO,IL,60613
1307259,6237 S HALSTED PKWY,41.7804872,-87.6422731,"(41.7804872,-87.6422731)",CHICAGO,IL,60621
1395803,1744 W Pryor,41.6908645,-87.6629395,"(41.6908645,-87.6629395)",CHICAGO,IL,60643
1401842,4934 S Wabash,41.8046516,-87.6255393,"(41.8046516,-87.6255393)",CHICAGO,IL,60615
1396156,141 W CHICAGO AVE,41.89650357363852,-87.6327844082446,"(41.89650357363852, -87.6327844082446)",CHICAGO,IL,60654
1401835,4934 S Wabash BLDG,41.8046515,-87.62550949999999,"(41.8046515,-87.62550949999999)",CHICAGO,IL,60615
1307310,5516 S Maplewood AVE,41.7928811,-87.6882064,"(41.7928811,-87.6882064)",CHICAGO,IL,60629
1345903,6040 N Kilpatrick AVE,41.9912004,-87.7464722,"(41.9912004,-87.7464722)",CHICAGO,IL,60646
1396011,141 W CHICAGO AVE,41.89650357363852,-87.6327844082446,"(41.89650357363852, -87.6327844082446)",CHICAGO,IL,60654
1395433,4000 N O'HARE FIELD,41.9802588,-87.9089858,"(41.9802588,-87.9089858)",CHICAGO,IL,60666
1151675,5114 S Elizabeth ST,41.8000688,-87.6565647,"(41.8000688,-87.6565647)",CHICAGO,IL,60609
1228263,4619 S Wolcott AVE,41.8096282,-87.6719638,"(41.8096282,-87.6719638)",CHICAGO,IL,60609
1361108,1410 S MUSEUM CAMPUS DR.,41.862628294037634,-87.61503109411332,"(41.862628294037634, -87.61503109411332)",CHICAGO,IL,60605
1360656,6237 S HALSTED PKWY,41.7804872,-87.6422731,"(41.7804872,-87.6422731)",CHICAGO,IL,60621
1319791,6657 S Kimbark AVE,41.7737472,-87.5940266,"(41.7737472,-87.5940266)",CHICAGO,IL,60637
1151604,1401 S CALIFORNIA AVE,41.8622623,-87.6951383,"(41.8622623,-87.6951383)",CHICAGO,IL,60608
1228225,5415 S Union AVE,41.7957456,-87.641884,"(41.7957456,-87.641884)",CHICAGO,IL,60609
1319774,6657 S Kimbark AVE,41.7737472,-87.5940266,"(41.7737472,-87.5940266)",CHICAGO,IL,60637
1115030,1410 S MUSEUM CAMPUS,41.862628294037634,-87.61503109411332,"(41.862628294037634, -87.61503109411332)",CHICAGO,IL,60605
1151779,4619 S Wolcott AVE,41.8096282,-87.6719638,"(41.8096282,-87.6719638)",CHICAGO,IL,60609
920387,6237 S HALSTED PKWY,41.7804872,-87.6422731,"(41.7804872,-87.6422731)",CHICAGO,IL,60621
1319754,6657 S Kimbark AVE,41.7737472,-87.5940266,"(41.7737472,-87.5940266)",CHICAGO,IL,60637
1319801,6657 S Kimbark AVE,41.7737472,-87.5940266,"(41.7737472,-87.5940266)",CHICAGO,IL,60637
920396,6237 S HALSTED PKWY,41.7804872,-87.6422731,"(41.7804872,-87.6422731)",CHICAGO,IL,60621
1155161,13100 S Doty,41.6755502,-87.6017907,"(41.6755502,-87.6017907)",CHICAGO,IL,60827
1369464,3838 W 49TH ST,41.8043798,-87.7204015,"(41.8043798,-87.7204015)",CHICAGO,IL,60632
1228307,2301 S INDIANA,41.85104667463312,-87.62209308455373,"(41.85104667463312, -87.62209308455373)",CHICAGO,IL,60616
1321230,2131 S 6TH AVE,41.8655778,-87.8394813,"(41.8655778,-87.8394813)",MAYWOOD,IL,60153
1375601,6237 S HALSTED PKWY,41.7804872,-87.6422731,"(41.7804872,-87.6422731)",CHICAGO,IL,60621
1319753,7037 S Rhodes AVE,41.7666885,-87.6113124,"(41.7666885,-87.6113124)",CHICAGO,IL,60637
1369223,108 W PARK,41.8992927,-87.9405057,"(41.8992927,-87.9405057)",ELMHURST,IL,60126
1115029,1410 S MUSEUM CAMPUS DR.,41.862628294037634,-87.61503109411332,"(41.862628294037634, -87.61503109411332)",CHICAGO,IL,60605
1360903,4327 N Ottawa AVE,41.9587437,-87.8180017,"(41.9587437,-87.8180017)",NORRIDGE,IL,60706
1361182,108 W PARK,41.8992927,-87.9405057,"(41.8992927,-87.9405057)",ELMHURST,IL,60126
1151733,5255 S State ST,41.7995035,-87.625015,"(41.7995035,-87.625015)",CHICAGO,IL,60609
1375435,433 E 79TH STREET,41.75103049992091,-87.61364868855419,"(41.75103049992091, -87.61364868855419)",CHICAGO,IL,60619
1361055,7349 S HALSTED ST,41.76011986738749,-87.644137230067,"(41.76011986738749, -87.644137230067)",CHICAGO,IL,60621
920433,7141 S Morgan ST,41.7636974,-87.6486262,"(41.7636974,-87.6486262)",CHICAGO,IL,60621
1228306,2301 S INDIANA AVE.,41.85104667463312,-87.62209308455373,"(41.85104667463312, -87.62209308455373)",CHICAGO,IL,60616
1353435,1366 N MILWAUKEE AVE,41.90654324873866,-87.67169262954617,"(41.90654324873866, -87.67169262954617)",CHICAGO,IL,60642
1151752,3625 S Hoyne,41.8276402,-87.6773181,"(41.8276402,-87.6773181)",CHICAGO,IL,60609
1360260,3107 S 71st ST BSMT,41.7727709,-87.7123355,"(41.7727709,-87.7123355)",CHICAGO,IL,60629
1321419,5516 S Maplewood AVE,41.7928811,-87.6882064,"(41.7928811,-87.6882064)",CHICAGO,IL,60629
920356,6237 S HALSTED PKWY,41.7804872,-87.6422731,"(41.7804872,-87.6422731)",CHICAGO,IL,60621
1335307,8601 W FOSTER AVE,41.9728267,-87.841588,"(41.9728267,-87.841588)",CHICAGO,IL,60656
1319720,6650 S Ellis AVE,41.7742214,-87.6012716,"(41.7742214,-87.6012716)",CHICAGO,IL,60637
1305303,6011 S Rockwell AVE,41.7840433,-87.6883007,"(41.7840433,-87.6883007)",CHICAGO,IL,60629
1296393,8306 S LAWRENCE AVE,41.743321,-87.6106718,"(41.743321,-87.6106718)",CHICAGO,IL,60619
920378,6237 S HALSTED PKWY,41.7804872,-87.6422731,"(41.7804872,-87.6422731)",CHICAGO,IL,60621
1335548,500 S CICERO AVE,41.87404017991668,-87.74517944542308,"(41.87404017991668, -87.74517944542308)",CHICAGO,IL,60644
1353228,405 N Wasbash AVE,41.8896989,-87.6260686,"(41.8896989,-87.6260686)",CHICAGO,IL,60611
1114731,3424 S State ST,41.8321532,-87.6272509,"(41.8321532,-87.6272509)",CHICAGO,IL,60616
1327035,6634 W RAVEN ST,41.9946144,-87.7926097,"(41.9946144,-87.7926097)",CHICAGO,IL,60631
1151172,1744 W Pryor,41.6908645,-87.6629395,"(41.6908645,-87.6629395)",CHICAGO,IL,60643
1327142,4245 W ARMITAGE AVE,41.916968141610525,-87.7332747911865,"(41.916968141610525, -87.7332747911865)",CHICAGO,IL,60639
1296331,2342 E 75TH ST,41.75908911565936,-87.56711077874444,"(41.759089115659364, -87.56711077874444)",CHICAGO,IL,60649
1335447,4000 N O'HARE FIELD,41.9802588,-87.9089858,"(41.9802588,-87.9089858)",CHICAGO,IL,60666
1098829,7770 FRONTAGE RD,42.0231952,-87.7679247,"(42.0231952,-87.7679247)",SKOKIE,IL,60077
1098842,7770 FRONTAGE RD,42.0231952,-87.7679247,"(42.0231952,-87.7679247)",SKOKIE,IL,60077
1335360,5630 S Rockwell AVE,41.79098279999999,-87.6895972,"(41.79098279999999,-87.6895972)",CHICAGO,IL,60629
1227809,4934 S Wabash BLDG,41.8046515,-87.62550949999999,"(41.8046515,-87.62550949999999)",CHICAGO,IL,60615
1227807,4934 S Wabash,41.8046516,-87.6255393,"(41.8046516,-87.6255393)",CHICAGO,IL,60615
1162231,4245 W ARMITAGE AVE,41.916968141610525,-87.7332747911865,"(41.916968141610525, -87.7332747911865)",CHICAGO,IL,60639
1326458,6237 S HALSTED PKWY,41.7804872,-87.6422731,"(41.7804872,-87.6422731)",CHICAGO,IL,60621
1296347,2342 E 75TH ST,41.75908911565936,-87.56711077874444,"(41.759089115659364, -87.56711077874444)",CHICAGO,IL,60649
1326421,1231 S DAMEN,41.86580003172552,-87.67607360607634,"(41.86580003172552, -87.67607360607634)",CHICAGO,IL,60608
1151253,2936 W 85TH PL,41.7376459,-87.719391,"(41.7376459,-87.719391)",CHICAGO,IL,60652
1321815,7141 S Morgan ST,41.7636974,-87.6486262,"(41.7636974,-87.6486262)",CHICAGO,IL,60621
1321935,4343 N Sacramento,41.9606778567489,-87.70319287636997,"(41.9606778567489, -87.70319287636997)",CHICAGO,IL,60618
1335503,5900 N Nina AVE,41.9890858,-87.8026557,"(41.9890858,-87.8026557)",CHICAGO,IL,60631
1114725,2320-2322 S MICHIGAN AVE,41.850453739981155,-87.62389126353149,"(41.850453739981155, -87.62389126353149)",CHICAGO,IL,60616
1343236,500 S CICERO AVE,41.87404017991668,-87.74517944542308,"(41.87404017991668, -87.74517944542308)",CHICAGO,IL,60644
1290249,5114 S Elizabeth ST,41.8000688,-87.6565647,"(41.8000688,-87.6565647)",CHICAGO,IL,60609
920318,7600 S CHICAGO AVE,41.756748,-87.593032,"(41.756748,-87.593032)",CHICAGO,IL,60619
1319208,7037 S Rhodes AVE,41.7666885,-87.6113124,"(41.7666885,-87.6113124)",CHICAGO,IL,60637
1300367,1439 TONNE RD,42.0033872,-87.9788749,"(42.0033872,-87.9788749)",ELK GROVE VILLAGE,IL,60007
1279250,1401 S CALIFORNIA AVE,41.8622623,-87.6951383,"(41.8622623,-87.6951383)",CHICAGO,IL,60608
1072236,8125 S HALSTED ST,41.74623627171974,-87.64376603783273,"(41.74623627171974, -87.64376603783273)",CHICAGO,IL,60620
1321602,6040 N Kilpatrick AVE,41.9912004,-87.7464722,"(41.9912004,-87.7464722)",CHICAGO,IL,60646
1279336,1231 S DAMEN,41.86580003172552,-87.67607360607634,"(41.86580003172552, -87.67607360607634)",CHICAGO,IL,60608
1154695,13100 S Doty,41.6755502,-87.6017907,"(41.6755502,-87.6017907)",CHICAGO,IL,60827
1290220,4619 S Wolcott AVE,41.8096282,-87.6719638,"(41.8096282,-87.6719638)",CHICAGO,IL,60609
1286036,4000 N O'HARE FIELD,41.9802588,-87.9089858,"(41.9802588,-87.9089858)",CHICAGO,IL,60666
1321724,2332 S Western,41.849557,-87.68695629999999,"(41.849557,-87.68695629999999)",CHICAGO,IL,60608
1150876,6237 S HALSTED PKWY,41.7804872,-87.6422731,"(41.7804872,-87.6422731)",CHICAGO,IL,60621
1290252,5415 S Union AVE,41.7957456,-87.641884,"(41.7957456,-87.641884)",CHICAGO,IL,60609
1154734,2425 E 71ST ST,41.7660867,-87.5653021,"(41.7660867,-87.5653021)",CHICAGO,IL,60649
1300730,5255 S State ST,41.7995035,-87.625015,"(41.7995035,-87.625015)",CHICAGO,IL,60609
1072219,7037 S Rhodes AVE,41.7666885,-87.6113124,"(41.7666885,-87.6113124)",CHICAGO,IL,60637
1321711,6040 N Kilpatrick AVE,41.9912004,-87.7464722,"(41.9912004,-87.7464722)",CHICAGO,IL,60646
1154737,2425 E 71ST ST,41.7660867,-87.5653021,"(41.7660867,-87.5653021)",CHICAGO,IL,60649
1096400,200 DIXIE HWY,41.5229274,-87.6517919,"(41.5229274,-87.6517919)",CHICAGO HEIGHTS,IL,60411
1234521,970 Criss CIR,42.0315734,-87.9729467,"(42.0315734,-87.9729467)",ELK GROVE VILLAGE,IL,60007
1285554,6657 S Kimbark AVE,41.7737472,-87.5940266,"(41.7737472,-87.5940266)",CHICAGO,IL,60637
1150560,6237 S HALSTED PKWY,41.7804872,-87.6422731,"(41.7804872,-87.6422731)",CHICAGO,IL,60621
1234734,3838 W 49TH ST,41.8043798,-87.7204015,"(41.8043798,-87.7204015)",CHICAGO,IL,60632
1285843,6657 S Kimbark AVE,41.7737472,-87.5940266,"(41.7737472,-87.5940266)",CHICAGO,IL,60637
1305212,6657 S Kimbark AVE,41.7737472,-87.5940266,"(41.7737472,-87.5940266)",CHICAGO,IL,60637
1150535,7349 S HALSTED ST,41.76011986738749,-87.644137230067,"(41.76011986738749, -87.644137230067)",CHICAGO,IL,60621
1234520,970 Criss CIR,42.0315734,-87.9729467,"(42.0315734,-87.9729467)",ELK GROVE VILLAGE,IL,60007
1150519,17429 S CENTER ST,41.57214219999999,-87.6458347,"(41.57214219999999,-87.6458347)",EAST HAZEL CREST,IL,60429
1230153,6601 MARTIN FRANCE,41.559538,-87.778643,"(41.559538,-87.778643)",TINLEY PARK,IL,60477
1134440,750 N FRANKLIN ST.,41.89631758778245,-87.63584025366825,"(41.89631758778245, -87.63584025366825)",CHICAGO,IL,60654
1154299,4934 S Wabash BLDG,41.8046515,-87.62550949999999,"(41.8046515,-87.62550949999999)",CHICAGO,IL,60615
1235018,321 DARROW,42.0237883,-87.6975917,"(42.0237883,-87.6975917)",EVANSTON,IL,60202
679321,405 N Wasbash AVE,41.8896989,-87.6260686,"(41.8896989,-87.6260686)",CHICAGO,IL,60611
679332,900 Glencoe TER,42.202733,-88.111842,"(42.202733,-88.111842)",LAKE ZURICH,IL,60047
1106210,7545 N PAULINA ST,42.01903180273219,-87.67345866417395,"(42.01903180273219, -87.67345866417395)",CHICAGO,IL,60626
1096390,200 DIXIE HWY,41.5229274,-87.6517919,"(41.5229274,-87.6517919)",CHICAGO HEIGHTS,IL,60411
1285444,491 SAGINAW,41.6217712,-87.5577758,"(41.6217712,-87.5577758)",CALUMET CITY,IL,60409
1194270,5900 N Nina AVE,41.9890858,-87.8026557,"(41.9890858,-87.8026557)",CHICAGO,IL,60631
1214511,8601 W FOSTER AVE,41.9728267,-87.841588,"(41.9728267,-87.841588)",CHICAGO,IL,60656
1154297,4934 S Wabash,41.8046516,-87.6255393,"(41.8046516,-87.6255393)",CHICAGO,IL,60615
1076250,7141 S Morgan ST,41.7636974,-87.6486262,"(41.7636974,-87.6486262)",CHICAGO,IL,60621
679872,6233 W ROOSEVELT RD,41.8652914,-87.7805526,"(41.8652914,-87.7805526)",BERWYN,IL,60402
659932,425 WALNUT DR,42.0287754,-88.1913942,"(42.0287754,-88.1913942)",STREAMWOOD,IL,60107
1096233,3424 S State ST,41.8321532,-87.6272509,"(41.8321532,-87.6272509)",CHICAGO,IL,60616
679831,6040 N Kilpatrick AVE,41.9912004,-87.7464722,"(41.9912004,-87.7464722)",CHICAGO,IL,60646
1229551,1366 N MILWAUKEE AVE,41.90654324873866,-87.67169262954617,"(41.90654324873866, -87.67169262954617)",CHICAGO,IL,60642
1076245,7141 S Morgan ST,41.7636974,-87.6486262,"(41.7636974,-87.6486262)",CHICAGO,IL,60621
1229732,4129 191ST CT,41.5412784,-87.7172734,"(41.5412784,-87.7172734)",COUNTRY CLUB HILLS,IL,60478
670689,6249 S WESTERN,41.7795158,-87.6833923,"(41.7795158,-87.6833923)",CHICAGO,IL,60636
1150309,2936 W 85TH PL,41.7376459,-87.719391,"(41.7376459,-87.719391)",CHICAGO,IL,60652
1076237,7141 S Morgan ST,41.7636974,-87.6486262,"(41.7636974,-87.6486262)",CHICAGO,IL,60621
1229384,1366 N MILWAUKEE AVE,41.90654324873866,-87.67169262954617,"(41.90654324873866, -87.67169262954617)",CHICAGO,IL,60642
679519,2777 MANNHEIM RD,42.003503,-87.884429,"(42.003503,-87.884429)",DES PLAINES,IL,60018
679868,13946 S CHIPPEWA,41.6420596,-87.5405641,"(41.6420596,-87.5405641)",BURNHAM,IL,60633
577788,5516 S Maplewood AVE,41.7928811,-87.6882064,"(41.7928811,-87.6882064)",CHICAGO,IL,60629
604616,6634 W RAVEN ST,41.9946144,-87.7926097,"(41.9946144,-87.7926097)",CHICAGO,IL,60631
1150344,1744 W Pryor,41.6908645,-87.6629395,"(41.6908645,-87.6629395)",CHICAGO,IL,60643
670733,6233 W ROOSEVELT RD,41.8652914,-87.7805526,"(41.8652914,-87.7805526)",BERWYN,IL,60402
670366,5630 S Rockwell AVE,41.79098279999999,-87.6895972,"(41.79098279999999,-87.6895972)",CHICAGO,IL,60629
659733,5063 W 29TH ST STE 2,41.8400178,-87.75178679999999,"(41.8400178,-87.75178679999999)",CICERO,IL,60804
598555,2332 S Western,41.849557,-87.68695629999999,"(41.849557,-87.68695629999999)",CHICAGO,IL,60608
670838,4000 N O'HARE FIELD,41.9802588,-87.9089858,"(41.9802588,-87.9089858)",CHICAGO,IL,60666
537795,8090 S COMMERCIAL AVE,41.7126259,-87.5512263,"(41.7126259,-87.5512263)",CHICAGO,IL,60617
657313,6650 S Ellis AVE,41.7742214,-87.6012716,"(41.7742214,-87.6012716)",CHICAGO,IL,60637
659736,2217 W CRYSTAL ST APT 2,41.9040447,-87.6821556,"(41.9040447,-87.6821556)",CHICAGO,IL,60622
604471,5441 N RIVER RD,41.9782877,-87.8433022,"(41.9782877,-87.8433022)",CHICAGO,IL,60656
531585,4934 S Wabash,41.8046516,-87.6255393,"(41.8046516,-87.6255393)",CHICAGO,IL,60615
606466,8125 S HALSTED ST,41.74623627171974,-87.64376603783273,"(41.74623627171974, -87.64376603783273)",CHICAGO,IL,60620
531584,4934 S Wabash BLDG,41.8046515,-87.62550949999999,"(41.8046515,-87.62550949999999)",CHICAGO,IL,60615
659681,9513 S RIDGELAND AVE STE 3E,41.7191103,-87.779855,"(41.7191103,-87.779855)",OAK LAWN,IL,60453
635185,350 WOODLAWN,42.1219418,-87.749442,"(42.1219418,-87.749442)",GLENCOE,IL,60022
539453,4000 N O'HARE FIELD,41.9802588,-87.9089858,"(41.9802588,-87.9089858)",CHICAGO,IL,60666
598421,1401 S CALIFORNIA AVE,41.8622623,-87.6951383,"(41.8622623,-87.6951383)",CHICAGO,IL,60608
673216,1744 W Pryor,41.6908645,-87.6629395,"(41.6908645,-87.6629395)",CHICAGO,IL,60643
537645,13100 S Doty,41.6755502,-87.6017907,"(41.6755502,-87.6017907)",CHICAGO,IL,60827
604476,8601 W FOSTER AVE,41.9728267,-87.841588,"(41.9728267,-87.841588)",CHICAGO,IL,60656
531621,6237 S HALSTED PKWY,41.7804872,-87.6422731,"(41.7804872,-87.6422731)",CHICAGO,IL,60621
657368,3424 S State ST,41.8321532,-87.6272509,"(41.8321532,-87.6272509)",CHICAGO,IL,60616
531607,6237 S HALSTED PKWY,41.7804872,-87.6422731,"(41.7804872,-87.6422731)",CHICAGO,IL,60621
657310,7037 S Rhodes AVE,41.7666885,-87.6113124,"(41.7666885,-87.6113124)",CHICAGO,IL,60637
531581,4934 S Wabash BLDG,41.8046515,-87.62550949999999,"(41.8046515,-87.62550949999999)",CHICAGO,IL,60615
577698,2936 W 85TH PL,41.7376459,-87.719391,"(41.7376459,-87.719391)",CHICAGO,IL,60652
657362,6657 S Kimbark AVE,41.7737472,-87.5940266,"(41.7737472,-87.5940266)",CHICAGO,IL,60637
606479,8125 S HALSTED ST,41.74623627171974,-87.64376603783273,"(41.74623627171974, -87.64376603783273)",CHICAGO,IL,60620
657344,6657 S Kimbark AVE,41.7737472,-87.5940266,"(41.7737472,-87.5940266)",CHICAGO,IL,60637
604399,6040 N Kilpatrick AVE,41.9912004,-87.7464722,"(41.9912004,-87.7464722)",CHICAGO,IL,60646
585974,2671 E 75TH ST,41.75957929907675,-87.55891723791517,"(41.75957929907675, -87.55891723791517)",CHICAGO,IL,60649
531545,6237 S HALSTED PKWY,41.7804872,-87.6422731,"(41.7804872,-87.6422731)",CHICAGO,IL,60621
531557,6237 S HALSTED PKWY,41.7804872,-87.6422731,"(41.7804872,-87.6422731)",CHICAGO,IL,60621
634484,2249 S 22ND AVE,41.8623632,-87.8588101,"(41.8623632,-87.8588101)",BROADVIEW,IL,60155
529244,4619 S Wolcott AVE,41.8096282,-87.6719638,"(41.8096282,-87.6719638)",CHICAGO,IL,60609
531443,6237 S HALSTED PKWY,41.7804872,-87.6422731,"(41.7804872,-87.6422731)",CHICAGO,IL,60621
598375,2332 S Western,41.849557,-87.68695629999999,"(41.849557,-87.68695629999999)",CHICAGO,IL,60608
529291,5255 S State ST,41.7995035,-87.625015,"(41.7995035,-87.625015)",CHICAGO,IL,60609
634580,105 CLAREMONT DR,41.7735356,-88.1702632,"(41.7735356,-88.1702632)",NAPERVILLE,IL,60540
586115,4500 S WOODS ST,41.8120682,-87.6702779,"(41.8120682,-87.6702779)",CHICAGO,IL,60609
539438,4000 N O'HARE FIELD,41.9802588,-87.9089858,"(41.9802588,-87.9089858)",CHICAGO,IL,60666
604384,6040 N Kilpatrick AVE,41.9912004,-87.7464722,"(41.9912004,-87.7464722)",CHICAGO,IL,60646
529287,5415 S Union AVE,41.7957456,-87.641884,"(41.7957456,-87.641884)",CHICAGO,IL,60609
634504,12256 WASHINGTON AVE,41.6704041,-87.6742643,"(41.6704041,-87.6742643)",BLUE ISLAND,IL,60406
529306,5255 S State ST,41.7995035,-87.625015,"(41.7995035,-87.625015)",CHICAGO,IL,60609
557390,6634 W RAVEN ST,41.9946144,-87.7926097,"(41.9946144,-87.7926097)",CHICAGO,IL,60631
557388,5900 N Nina AVE,41.9890858,-87.8026557,"(41.9890858,-87.8026557)",CHICAGO,IL,60631
567377,400 E WATER ST,41.8866527,-87.6168349,"(41.8866527,-87.6168349)",CHICAGO,IL,60601
598236,1410 S MUSEUM CAMPUS,41.862628294037634,-87.61503109411332,"(41.862628294037634, -87.61503109411332)",CHICAGO,IL,60605
567414,425 E MC FETRIDGE BLDG,41.8618659,-87.61608629999999,"(41.8618659,-87.61608629999999)",CHICAGO,IL,60605
577312,5630 S Rockwell AVE,41.79098279999999,-87.6895972,"(41.79098279999999,-87.6895972)",CHICAGO,IL,60629
569308,405 N Wasbash AVE,41.8896989,-87.6260686,"(41.8896989,-87.6260686)",CHICAGO,IL,60611
604214,8601 W FOSTER AVE,41.9728267,-87.841588,"(41.9728267,-87.841588)",CHICAGO,IL,60656
598235,1410 S MUSEUM CAMPUS DR.,41.862628294037634,-87.61503109411332,"(41.862628294037634, -87.61503109411332)",CHICAGO,IL,60605
604224,6040 N Kilpatrick AVE,41.9912004,-87.7464722,"(41.9912004,-87.7464722)",CHICAGO,IL,60646
598237,1410 S MUSEUM CAMPUS DR.,41.862628294037634,-87.61503109411332,"(41.862628294037634, -87.61503109411332)",CHICAGO,IL,60605
585325,3625 S Hoyne,41.8276402,-87.6773181,"(41.8276402,-87.6773181)",CHICAGO,IL,60609
347310,1900 MAYWOOD DR,41.877247,-87.856215,"(41.877247,-87.856215)",MAYWOOD,IL,60153
2619266,1617 CLARKSON CT,41.7396406,-88.0987288,"(41.7396406,-88.0987288)",NAPERVILLE,IL,60565
543260,1744 W Pryor,41.6908645,-87.6629395,"(41.6908645,-87.6629395)",CHICAGO,IL,60643
491395,1900 MAYWOOD DR,41.877247,-87.856215,"(41.877247,-87.856215)",MAYWOOD,IL,60153
391371,4742-44 N RACINE AVE,41.968490719713,-87.65981645066375,"(41.968490719713, -87.65981645066375)",CHICAGO,IL,60640
580235,1900 MAYWOOD DR,41.877247,-87.856215,"(41.877247,-87.856215)",MAYWOOD,IL,60153
579256,8125 S HALSTED ST,41.74623627171974,-87.64376603783273,"(41.74623627171974, -87.64376603783273)",CHICAGO,IL,60620
529209,5255 S State ST,41.7995035,-87.625015,"(41.7995035,-87.625015)",CHICAGO,IL,60609
580237,1900 MAYWOOD DR,41.877247,-87.856215,"(41.877247,-87.856215)",MAYWOOD,IL,60153
529212,5255 S State ST,41.7995035,-87.625015,"(41.7995035,-87.625015)",CHICAGO,IL,60609
347308,1900 MAYWOOD DR,41.877247,-87.856215,"(41.877247,-87.856215)",MAYWOOD,IL,60153
549241,11150 S HARLEM AVE,41.6883461,-87.7979232,"(41.6883461,-87.7979232)",WORTH,IL,60482
347309,1900 MAYWOOD DR,41.877247,-87.856215,"(41.877247,-87.856215)",MAYWOOD,IL,60153
491811,11150 S HARLEM AVE,41.6883461,-87.7979232,"(41.6883461,-87.7979232)",WORTH,IL,60482
579227,4619 S Wolcott AVE,41.8096282,-87.6719638,"(41.8096282,-87.6719638)",CHICAGO,IL,60609
531267,7141 S Morgan ST,41.7636974,-87.6486262,"(41.7636974,-87.6486262)",CHICAGO,IL,60621
491846,11150 S HARLEM AVE,41.6883461,-87.7979232,"(41.6883461,-87.7979232)",WORTH,IL,60482
525229,4742-44 N RACINE AVE,41.968490719713,-87.65981645066375,"(41.968490719713, -87.65981645066375)",CHICAGO,IL,60640
491694,4000 N O'HARE FIELD,41.9802588,-87.9089858,"(41.9802588,-87.9089858)",CHICAGO,IL,60666
549254,11150 S HARLEM AVE,41.6883461,-87.7979232,"(41.6883461,-87.7979232)",WORTH,IL,60482
491413,5415 S Union AVE,41.7957456,-87.641884,"(41.7957456,-87.641884)",CHICAGO,IL,60609
428391,2653 N WASTENAW AVE BLDG,41.9301572,-87.6948819,"(41.9301572,-87.6948819)",CHICAGO,IL,60647
580238,1900 MAYWOOD DR,41.877247,-87.856215,"(41.877247,-87.856215)",MAYWOOD,IL,60153
579776,5114 S Elizabeth ST,41.8000688,-87.6565647,"(41.8000688,-87.6565647)",CHICAGO,IL,60609
361348,6040 N Kilpatrick AVE,41.9912004,-87.7464722,"(41.9912004,-87.7464722)",CHICAGO,IL,60646
483133,6330 S STEWART ST,41.77896336682326,-87.63516942804449,"(41.77896336682326, -87.63516942804449)",CHICAGO,IL,60621
490912,2332 S Western,41.849557,-87.68695629999999,"(41.849557,-87.68695629999999)",CHICAGO,IL,60608
580232,1900 MAYWOOD DR,41.877247,-87.856215,"(41.877247,-87.856215)",MAYWOOD,IL,60153
531254,7349 S HALSTED ST,41.76011986738749,-87.644137230067,"(41.76011986738749, -87.644137230067)",CHICAGO,IL,60621
531225,7349 S HALSTED ST,41.76011986738749,-87.644137230067,"(41.76011986738749, -87.644137230067)",CHICAGO,IL,60621
580233,1900 MAYWOOD DR,41.877247,-87.856215,"(41.877247,-87.856215)",MAYWOOD,IL,60153
397232,4000 N O'HARE FIELD,41.9802588,-87.9089858,"(41.9802588,-87.9089858)",CHICAGO,IL,60666
419750,2936 W 85TH PL,41.7376459,-87.719391,"(41.7376459,-87.719391)",CHICAGO,IL,60652
397235,8601 W FOSTER AVE,41.9728267,-87.841588,"(41.9728267,-87.841588)",CHICAGO,IL,60656
453326,6011 S Rockwell AVE,41.7840433,-87.6883007,"(41.7840433,-87.6883007)",CHICAGO,IL,60629
462304,2646 N MILWAUKEE AVE AVE,41.9297638,-87.70888169999999,"(41.9297638,-87.70888169999999)",CHICAGO,IL,60647
401418,6237 S HALSTED PKWY,41.7804872,-87.6422731,"(41.7804872,-87.6422731)",CHICAGO,IL,60621
453327,5516 S Maplewood AVE,41.7928811,-87.6882064,"(41.7928811,-87.6882064)",CHICAGO,IL,60629
297244,11150 S HARLEM AVE,41.6883461,-87.7979232,"(41.6883461,-87.7979232)",WORTH,IL,60482
361354,6040 N Kilpatrick AVE,41.9912004,-87.7464722,"(41.9912004,-87.7464722)",CHICAGO,IL,60646
250259,7037 S Rhodes AVE,41.7666885,-87.6113124,"(41.7666885,-87.6113124)",CHICAGO,IL,60637
397239,8601 W FOSTER AVE,41.9728267,-87.841588,"(41.9728267,-87.841588)",CHICAGO,IL,60656
428993,2646 N MILWAUKEE AVE AVE,41.9297638,-87.70888169999999,"(41.9297638,-87.70888169999999)",CHICAGO,IL,60647
335363,2301 E 79TH ST,41.7515920243175,-87.56860603613539,"(41.7515920243175, -87.56860603613539)",CHICAGO,IL,60649
250960,3625 S Hoyne,41.8276402,-87.6773181,"(41.8276402,-87.6773181)",CHICAGO,IL,60609
419324,5255 S State ST,41.7995035,-87.625015,"(41.7995035,-87.625015)",CHICAGO,IL,60609
158419,5114 S Elizabeth ST,41.8000688,-87.6565647,"(41.8000688,-87.6565647)",CHICAGO,IL,60609
414120,2936 W 85TH PL,41.7376459,-87.719391,"(41.7376459,-87.719391)",CHICAGO,IL,60652
413974,1900 Maywood RD,41.8900238,-87.8331463,"(41.8900238,-87.8331463)",MAYWOOD,IL,60153
317269,7141 S Morgan ST,41.7636974,-87.6486262,"(41.7636974,-87.6486262)",CHICAGO,IL,60621
251185,17429 S CENTER ST,41.57214219999999,-87.6458347,"(41.57214219999999,-87.6458347)",EAST HAZEL CREST,IL,60429
413977,1900 MAYWOOD DR,41.877247,-87.856215,"(41.877247,-87.856215)",MAYWOOD,IL,60153
284523,6237 S HALSTED PKWY,41.7804872,-87.6422731,"(41.7804872,-87.6422731)",CHICAGO,IL,60621
413369,329 S FRANKLIN ST,41.87739707385008,-87.63504341455305,"(41.87739707385008, -87.63504341455305)",CHICAGO,IL,60606
250921,5255 S State ST,41.7995035,-87.625015,"(41.7995035,-87.625015)",CHICAGO,IL,60609
233469,1744 W Pryor,41.6908645,-87.6629395,"(41.6908645,-87.6629395)",CHICAGO,IL,60643
250878,5114 S Elizabeth ST,41.8000688,-87.6565647,"(41.8000688,-87.6565647)",CHICAGO,IL,60609
233502,8306 S LAWRENCE AVE,41.743321,-87.6106718,"(41.743321,-87.6106718)",CHICAGO,IL,60619
60563,2332 S Western,41.849557,-87.68695629999999,"(41.849557,-87.68695629999999)",CHICAGO,IL,60608
233637,6040 N Kilpatrick AVE,41.9912004,-87.7464722,"(41.9912004,-87.7464722)",CHICAGO,IL,60646
233524,6650 S Ellis AVE,41.7742214,-87.6012716,"(41.7742214,-87.6012716)",CHICAGO,IL,60637
2624633,5630 S Rockwell AVE,41.79098279999999,-87.6895972,"(41.79098279999999,-87.6895972)",CHICAGO,IL,60629
250702,5415 S Union AVE,41.7957456,-87.641884,"(41.7957456,-87.641884)",CHICAGO,IL,60609
251071,4619 S Wolcott AVE,41.8096282,-87.6719638,"(41.8096282,-87.6719638)",CHICAGO,IL,60609
60578,2332 S Western,41.849557,-87.68695629999999,"(41.849557,-87.68695629999999)",CHICAGO,IL,60608
277018,17429 S CENTER ST,41.57214219999999,-87.6458347,"(41.57214219999999,-87.6458347)",EAST HAZEL CREST,IL,60429
233846,8921 S UTICA AVE,41.7312243,-87.6983196,"(41.7312243,-87.6983196)",EVERGREEN PARK,IL,60805
233535,6657 S Kimbark AVE,41.7737472,-87.5940266,"(41.7737472,-87.5940266)",CHICAGO,IL,60637
74472,4934 S Wabash BLDG,41.8046515,-87.62550949999999,"(41.8046515,-87.62550949999999)",CHICAGO,IL,60615
231354,3424 S State ST,41.8321532,-87.6272509,"(41.8321532,-87.6272509)",CHICAGO,IL,60616
68148,6011 S Rockwell AVE,41.7840433,-87.6883007,"(41.7840433,-87.6883007)",CHICAGO,IL,60629
120396,1531 W Taylor ST,41.86917024255043,-87.66538446635471,"(41.86917024255043, -87.66538446635471)",CHICAGO,IL,60607
74471,4934 S Wabash,41.8046516,-87.6255393,"(41.8046516,-87.6255393)",CHICAGO,IL,60615
58348,1357 N MILWAUKEE AVE,41.9065958418503,-87.67132302294661,"(41.9065958418503, -87.67132302294661)",CHICAGO,IL,60622
70418,8601 W FOSTER AVE,41.9728267,-87.841588,"(41.9728267,-87.841588)",CHICAGO,IL,60656
197368,400 E WATER ST,41.8866527,-87.6168349,"(41.8866527,-87.6168349)",CHICAGO,IL,60601
177151,7349 S HALSTED ST,41.76011986738749,-87.644137230067,"(41.76011986738749, -87.644137230067)",CHICAGO,IL,60621
60291,4464 W 44TH ST,41.81426627941673,-87.73601340697145,"(41.81426627941673, -87.73601340697145)",CHICAGO,IL,60632
60279,4464 W 44TH ST,41.81426627941673,-87.73601340697145,"(41.81426627941673, -87.73601340697145)",CHICAGO,IL,60632
124385,5900 N Nina AVE,41.9890858,-87.8026557,"(41.9890858,-87.8026557)",CHICAGO,IL,60631
63277,3601 W CERMAK RD,41.85155346052472,-87.715059286164,"(41.85155346052472, -87.715059286164)",CHICAGO,IL,60623
233328,13100 S Doty,41.6755502,-87.6017907,"(41.6755502,-87.6017907)",CHICAGO,IL,60827
60282,4464 W 44TH ST,41.81426627941673,-87.73601340697145,"(41.81426627941673, -87.73601340697145)",CHICAGO,IL,60632
215299,250 1/2 CHICAGO AVE,41.8946993,-87.7761526,"(41.8946993,-87.7761526)",OAK PARK,IL,60302
67788,5516 S Maplewood AVE,41.7928811,-87.6882064,"(41.7928811,-87.6882064)",CHICAGO,IL,60629
158341,2425 E 71ST ST,41.7660867,-87.5653021,"(41.7660867,-87.5653021)",CHICAGO,IL,60649
176507,5630 S Rockwell AVE,41.79098279999999,-87.6895972,"(41.79098279999999,-87.6895972)",CHICAGO,IL,60629
124279,8750 W BRYN WAWR AVE,41.9828446,-87.8442865,"(41.9828446,-87.8442865)",CHICAGO,IL,60631
67865,7141 S Morgan ST,41.7636974,-87.6486262,"(41.7636974,-87.6486262)",CHICAGO,IL,60621
67947,7141 S Morgan ST,41.7636974,-87.6486262,"(41.7636974,-87.6486262)",CHICAGO,IL,60621
67807,3601 W CERMAK RD,41.85155346052472,-87.715059286164,"(41.85155346052472, -87.715059286164)",CHICAGO,IL,60623
67912,8125 S HALSTED ST,41.74623627171974,-87.64376603783273,"(41.74623627171974, -87.64376603783273)",CHICAGO,IL,60620
98335,3549 W IRVING PK. RD. RD,41.9534771,-87.7173301,"(41.9534771,-87.7173301)",CHICAGO,IL,60618
2230064,7037 S Rhodes AVE,41.7666885,-87.6113124,"(41.7666885,-87.6113124)",CHICAGO,IL,60637
67738,8750 W BRYN WAWR AVE,41.9828446,-87.8442865,"(41.9828446,-87.8442865)",CHICAGO,IL,60631
158253,4500 S WOODS ST,41.8120682,-87.6702779,"(41.8120682,-87.6702779)",CHICAGO,IL,60609
154225,2324 N FREMONT ST,41.9245121,-87.6513037,"(41.9245121,-87.6513037)",CHICAGO,IL,60614
124283,6634 W RAVEN ST,41.9946144,-87.7926097,"(41.9946144,-87.7926097)",CHICAGO,IL,60631
2623291,2332 S Western,41.849557,-87.68695629999999,"(41.849557,-87.68695629999999)",CHICAGO,IL,60608
2312782,7141 S Morgan ST,41.7636974,-87.6486262,"(41.7636974,-87.6486262)",CHICAGO,IL,60621
2320308,4000 N O'HARE FIELD,41.9802588,-87.9089858,"(41.9802588,-87.9089858)",CHICAGO,IL,60666
2261974,6237 S HALSTED PKWY,41.7804872,-87.6422731,"(41.7804872,-87.6422731)",CHICAGO,IL,60621
2620590,522 N MILWAUKEE AVE,41.89173286514732,-87.64865419293943,"(41.89173286514732, -87.64865419293943)",CHICAGO,IL,60642
2555993,1744 W Pryor,41.6908645,-87.6629395,"(41.6908645,-87.6629395)",CHICAGO,IL,60643
2229857,7037 S Rhodes AVE,41.7666885,-87.6113124,"(41.7666885,-87.6113124)",CHICAGO,IL,60637
2624182,5516 S Maplewood AVE,41.7928811,-87.6882064,"(41.7928811,-87.6882064)",CHICAGO,IL,60629
2619147,545 W 31ST,41.8379944,-87.6407205,"(41.8379944,-87.6407205)",CHICAGO,IL,60616
2615962,2318 S STATE ST,41.85046307349731,-87.62717624187772,"(41.85046307349731, -87.62717624187772)",CHICAGO,IL,60616
2619955,545 W 31ST,41.8379944,-87.6407205,"(41.8379944,-87.6407205)",CHICAGO,IL,60616
2603400,6650 S Ellis AVE,41.7742214,-87.6012716,"(41.7742214,-87.6012716)",CHICAGO,IL,60637
2268879,8601 W FOSTER AVE,41.9728267,-87.841588,"(41.9728267,-87.841588)",CHICAGO,IL,60656
2624251,6650 S Ellis AVE,41.7742214,-87.6012716,"(41.7742214,-87.6012716)",CHICAGO,IL,60637
2293872,108 W PARK,41.8992927,-87.9405057,"(41.8992927,-87.9405057)",ELMHURST,IL,60126
2252988,7104 N MANNHEIM RD,41.9575052,-87.8845199,"(41.9575052,-87.8845199)",ROSEMONT,IL,60018
2500782,522 N MILWAUKEE AVE,41.89173286514732,-87.64865419293943,"(41.89173286514732, -87.64865419293943)",CHICAGO,IL,60642
2374111,6237 S HALSTED PKWY,41.7804872,-87.6422731,"(41.7804872,-87.6422731)",CHICAGO,IL,60621
2359827,853 S ROSELLE RD,42.01113,-88.0799213,"(42.01113,-88.0799213)",SCHAUMBURG,IL,60193
2624087,324 W JACKSON BLVD,41.8782034961044,-87.63594035379518,"(41.8782034961044, -87.63594035379518)",CHICAGO,IL,60606
2572525,1744 W Pryor,41.6908645,-87.6629395,"(41.6908645,-87.6629395)",CHICAGO,IL,60643
2290654,838 W KINZIE ST,41.88913510926819,-87.64905166297672,"(41.88913510926819, -87.64905166297672)",CHICAGO,IL,60642
2537221,4619 S Wolcott AVE,41.8096282,-87.6719638,"(41.8096282,-87.6719638)",CHICAGO,IL,60609
2009270,1010 S DELANO CT,41.8682202,-87.6328072,"(41.8682202,-87.6328072)",CHICAGO,IL,60605
2619597,601 W HUNTINGTON COMMONS ST,42.0413478,-87.9445638,"(42.0413478,-87.9445638)",MOUNT PROSPECT,IL,60056
2356653,2218-2222 N WESTERN AVE,41.922312062185554,-87.68770889778496,"(41.922312062185554, -87.68770889778496)",CHICAGO,IL,60647
2566508,5255 S State ST,41.7995035,-87.625015,"(41.7995035,-87.625015)",CHICAGO,IL,60609
2359805,2218-2222 N WESTERN AVE,41.922312062185554,-87.68770889778496,"(41.922312062185554, -87.68770889778496)",CHICAGO,IL,60647
2544913,4000 N O'HARE FIELD,41.9802588,-87.9089858,"(41.9802588,-87.9089858)",CHICAGO,IL,60666
2359766,2218-2222 N WESTERN AVE,41.922312062185554,-87.68770889778496,"(41.922312062185554, -87.68770889778496)",CHICAGO,IL,60647
2401213,8344 S HALSTED ST,41.74201532533156,-87.64393794761001,"(41.74201532533156, -87.64393794761001)",CHICAGO,IL,60620
2545641,1010 S DELANO CT,41.8682202,-87.6328072,"(41.8682202,-87.6328072)",CHICAGO,IL,60605
2230177,1148 N MILWAUKEE AVE,41.90249586026425,-87.66535770275132,"(41.90249586026425, -87.66535770275132)",CHICAGO,IL,60642
2268288,1744 W Pryor,41.6908645,-87.6629395,"(41.6908645,-87.6629395)",CHICAGO,IL,60643
2268471,6237 S HALSTED PKWY,41.7804872,-87.6422731,"(41.7804872,-87.6422731)",CHICAGO,IL,60621
2589191,5255 S State ST,41.7995035,-87.625015,"(41.7995035,-87.625015)",CHICAGO,IL,60609
2596515,7557 LATROBE AVE,41.7549934,-87.752359,"(41.7549934,-87.752359)",BURBANK,IL,60459
2596754,1200 S JEAN BAPTISTE POINTE DUSABLE DR,41.8703314,-87.62357420000001,"(41.8703314,-87.62357420000001)",CHICAGO,IL,60605
2230029,6657 S Kimbark AVE,41.7737472,-87.5940266,"(41.7737472,-87.5940266)",CHICAGO,IL,60637
1154670,13100 S Doty,41.6755502,-87.6017907,"(41.6755502,-87.6017907)",CHICAGO,IL,60827
2501129,6237 S HALSTED PKWY,41.7804872,-87.6422731,"(41.7804872,-87.6422731)",CHICAGO,IL,60621
2590385,10656 S TORRENCE AVE,41.70112036721256,-87.55972431384708,"(41.70112036721256, -87.55972431384708)",CHICAGO,IL,60617
2602713,4619 S Wolcott AVE,41.8096282,-87.6719638,"(41.8096282,-87.6719638)",CHICAGO,IL,60609
1319207,6650 S Ellis AVE,41.7742214,-87.6012716,"(41.7742214,-87.6012716)",CHICAGO,IL,60637
1234523,970 Criss CIR,42.0315734,-87.9729467,"(42.0315734,-87.9729467)",ELK GROVE VILLAGE,IL,60007
1234525,970 Criss CIR,42.0315734,-87.9729467,"(42.0315734,-87.9729467)",ELK GROVE VILLAGE,IL,60007
1239213,5350 W 38TH ST,41.823776,-87.7573204,"(41.823776,-87.7573204)",CICERO,IL,60804
2617802,901 W KINZIE ST,41.88890907624813,-87.64996187923906,"(41.88890907624813, -87.64996187923906)",CHICAGO,IL,60642
1424973,1800 W CULYER AVE,41.9554507,-87.674528,"(41.9554507,-87.674528)",CHICAGO,IL,60613
1632666,5900 N Nina AVE,41.9890858,-87.8026557,"(41.9890858,-87.8026557)",CHICAGO,IL,60631
1473431,950 ESTES CT,42.0027309,-88.1025879,"(42.0027309,-88.1025879)",SCHAUMBURG,IL,60193
164427,1744 W Pryor,41.6908645,-87.6629395,"(41.6908645,-87.6629395)",CHICAGO,IL,60643
1559987,1017 S DELANO CT,41.8682202,-87.6328072,"(41.8682202,-87.6328072)",CHICAGO,IL,60605
2615805,3814 S HOME AVE,41.8614408,-87.7988475,"(41.8614408,-87.7988475)",BERWYN,IL,60402
2167063,7451 W 100TH PL,41.7093496,-87.8094842,"(41.7093496,-87.8094842)",BRIDGEVIEW,IL,60455
2240360,6650 S Ellis AVE,41.7742214,-87.6012716,"(41.7742214,-87.6012716)",CHICAGO,IL,60637
2610328,4000 N O'HARE FIELD,41.9802588,-87.9089858,"(41.9802588,-87.9089858)",CHICAGO,IL,60666
2612813,3625 S Hoyne,41.8276402,-87.6773181,"(41.8276402,-87.6773181)",CHICAGO,IL,60609
2617268,2707 HIGHLAND AVE,42.0671838,-87.7224096,"(42.0671838,-87.7224096)",EVANSTON,IL,60201
2610443,5900 N Nina AVE,41.9890858,-87.8026557,"(41.9890858,-87.8026557)",CHICAGO,IL,60631
2293509,4000 N O'HARE FIELD,41.9802588,-87.9089858,"(41.9802588,-87.9089858)",CHICAGO,IL,60666
2370150,506 N Milwaukee AVE,41.89131314887029,-87.64800866711568,"(41.89131314887029, -87.64800866711568)",CHICAGO,IL,60642
2356212,8601 W FOSTER AVE,41.9728267,-87.841588,"(41.9728267,-87.841588)",CHICAGO,IL,60656
2614583,1011 S DELANO CT,41.8696351,-87.6327347,"(41.8696351,-87.6327347)",CHICAGO,IL,60605
2567253,3838 W 49TH ST,41.8043798,-87.7204015,"(41.8043798,-87.7204015)",CHICAGO,IL,60632
2573058,1744 W Pryor,41.6908645,-87.6629395,"(41.6908645,-87.6629395)",CHICAGO,IL,60643
2401868,8344 S HALSTED ST,41.74201532533156,-87.64393794761001,"(41.74201532533156, -87.64393794761001)",CHICAGO,IL,60620
2509323,8344 S HALSTED ST,41.74201532533156,-87.64393794761001,"(41.74201532533156, -87.64393794761001)",CHICAGO,IL,60620
2510117,8344 S HALSTED ST,41.74201532533156,-87.64393794761001,"(41.74201532533156, -87.64393794761001)",CHICAGO,IL,60620
2610640,1338 S HALSTED ST,41.86440790840258,-87.64698520298732,"(41.86440790840258, -87.64698520298732)",CHICAGO,IL,60607
2615869,1601 PAYNE,42.0571616,-87.694595,"(42.0571616,-87.694595)",EVANSTON,IL,60201
2614608,1011 S DELANO CT,41.8696351,-87.6327347,"(41.8696351,-87.6327347)",CHICAGO,IL,60605
2584719,4000 N O'HARE FIELD,41.9802588,-87.9089858,"(41.9802588,-87.9089858)",CHICAGO,IL,60666
2572873,1744 W Pryor,41.6908645,-87.6629395,"(41.6908645,-87.6629395)",CHICAGO,IL,60643
2578653,1210 CHICAGO AVE,42.0399207,-87.6809484,"(42.0399207,-87.6809484)",EVANSTON,IL,60202
2618424,2119 S PEORIA ST,41.85333023480595,-87.64800350216731,"(41.85333023480595, -87.64800350216731)",CHICAGO,IL,60608
2590749,5114 S Elizabeth ST,41.8000688,-87.6565647,"(41.8000688,-87.6565647)",CHICAGO,IL,60609
2589501,5255 S State ST,41.7995035,-87.625015,"(41.7995035,-87.625015)",CHICAGO,IL,60609
2624126,5630 S Rockwell AVE,41.79098279999999,-87.6895972,"(41.79098279999999,-87.6895972)",CHICAGO,IL,60629
391211,4446 N BROARDWAY,41.9631897,-87.65634519999999,"(41.9631897,-87.65634519999999)",CHICAGO,IL,60640
2608134,545 W 31ST,41.8379944,-87.6407205,"(41.8379944,-87.6407205)",CHICAGO,IL,60616
555353,1744 W Pryor,41.6908645,-87.6629395,"(41.6908645,-87.6629395)",CHICAGO,IL,60643
670661,7545 N PAULINA ST,42.01903180273219,-87.67345866417395,"(42.01903180273219, -87.67345866417395)",CHICAGO,IL,60626
2608269,2834-2922 W VAN BUREN ST,41.87607517011914,-87.69743686861689,"(41.87607517011914, -87.69743686861689)",CHICAGO,IL,60612
2613158,3625 S Hoyne,41.8276402,-87.6773181,"(41.8276402,-87.6773181)",CHICAGO,IL,60609
1227250,6011 S Rockwell AVE,41.7840433,-87.6883007,"(41.7840433,-87.6883007)",CHICAGO,IL,60629
2610720,6040 N Kilpatrick AVE,41.9912004,-87.7464722,"(41.9912004,-87.7464722)",CHICAGO,IL,60646
2614423,10656 S TORRENCE AVE,41.70112036721256,-87.55972431384708,"(41.70112036721256, -87.55972431384708)",CHICAGO,IL,60617
2617196,1223 N ROSSELL,41.9076607,-87.786107,"(41.9076607,-87.786107)",OAK PARK,IL,60302
2617470,3838 W 49TH ST,41.8043798,-87.7204015,"(41.8043798,-87.7204015)",CHICAGO,IL,60632
2311664,1010 S DELANO CT,41.8682202,-87.6328072,"(41.8682202,-87.6328072)",CHICAGO,IL,60605
2613315,3625 S Hoyne,41.8276402,-87.6773181,"(41.8276402,-87.6773181)",CHICAGO,IL,60609
2611933,4934 S Wabash,41.8046516,-87.6255393,"(41.8046516,-87.6255393)",CHICAGO,IL,60615
2609223,17848 W CHEYENNE CT,42.3484999,-87.9805221,"(42.3484999,-87.9805221)",GRAYSLAKE,IL,60030
2621991,868 N WELLS STS,41.8985834,-87.6346125,"(41.8985834,-87.6346125)",CHICAGO,IL,60610
2614682,4619 S Wolcott AVE,41.8096282,-87.6719638,"(41.8096282,-87.6719638)",CHICAGO,IL,60609
2610766,1338 S HALSTED ST,41.86440790840258,-87.64698520298732,"(41.86440790840258, -87.64698520298732)",CHICAGO,IL,60607
2619995,8118 S STONY ISLAND AVE,41.74724060201805,-87.5860251882879,"(41.74724060201805, -87.5860251882879)",CHICAGO,IL,60617
2618671,5114 S Elizabeth ST,41.8000688,-87.6565647,"(41.8000688,-87.6565647)",CHICAGO,IL,60609
2609180,6657 S Kimbark AVE,41.7737472,-87.5940266,"(41.7737472,-87.5940266)",CHICAGO,IL,60637
2613407,3625 S Hoyne,41.8276402,-87.6773181,"(41.8276402,-87.6773181)",CHICAGO,IL,60609
2232885,6650 S Ellis AVE,41.7742214,-87.6012716,"(41.7742214,-87.6012716)",CHICAGO,IL,60637
2616476,1744 W Pryor,41.6908645,-87.6629395,"(41.6908645,-87.6629395)",CHICAGO,IL,60643
2616423,1133 SOUTH BLVD APT 918,41.8865734,-87.8041741,"(41.8865734,-87.8041741)",OAK PARK,IL,60302
2616446,4619 S Wolcott AVE,41.8096282,-87.6719638,"(41.8096282,-87.6719638)",CHICAGO,IL,60609
2402188,7141 S Morgan ST,41.7636974,-87.6486262,"(41.7636974,-87.6486262)",CHICAGO,IL,60621
2568563,13100 S Doty,41.6755502,-87.6017907,"(41.6755502,-87.6017907)",CHICAGO,IL,60827
2240555,4619 S Wolcott AVE,41.8096282,-87.6719638,"(41.8096282,-87.6719638)",CHICAGO,IL,60609
2352764,3455-3459 S OGDEN AVE,41.8667758,-87.6836019,"(41.8667758,-87.6836019)",CHICAGO,IL,60623
2320829,3455-3459 S OGDEN AVE,41.8667758,-87.6836019,"(41.8667758,-87.6836019)",CHICAGO,IL,60623
2352760,3455-3459 S OGDEN AVE,41.8667758,-87.6836019,"(41.8667758,-87.6836019)",CHICAGO,IL,60623
2269127,1017 S DELANO CT,41.8682202,-87.6328072,"(41.8682202,-87.6328072)",CHICAGO,IL,60605
2623054,3152 W 111TH ST,41.69168074856247,-87.70051617452317,"(41.69168074856247, -87.70051617452317)",CHICAGO,IL,60655
2620802,912 N ASHLAND AVE,41.898289314303305,-87.66750000594696,"(41.898289314303305, -87.66750000594696)",CHICAGO,IL,60622
2616495,13100 S Doty,41.6755502,-87.6017907,"(41.6755502,-87.6017907)",CHICAGO,IL,60827
2320813,3455-3459 S OGDEN AVE,41.8667758,-87.6836019,"(41.8667758,-87.6836019)",CHICAGO,IL,60623
2609718,2009 S LAFIN ST,41.8548352,-87.6635321,"(41.8548352,-87.6635321)",CHICAGO,IL,60608
2611007,2009 S LAFIN ST,41.8548352,-87.6635321,"(41.8548352,-87.6635321)",CHICAGO,IL,60608
2401673,7141 S Morgan ST,41.7636974,-87.6486262,"(41.7636974,-87.6486262)",CHICAGO,IL,60621
2618750,1625 CHICAGO AVE,42.047065,-87.6789663,"(42.047065,-87.6789663)",EVANSTON,IL,60201
2609666,545 W 31ST,41.8379944,-87.6407205,"(41.8379944,-87.6407205)",CHICAGO,IL,60616
2402016,7141 S Morgan ST,41.7636974,-87.6486262,"(41.7636974,-87.6486262)",CHICAGO,IL,60621
2613736,10656 S TORRENCE AVE,41.70112036721256,-87.55972431384708,"(41.70112036721256, -87.55972431384708)",CHICAGO,IL,60617
2581000,2119 S PEORIA ST,41.85333023480595,-87.64800350216731,"(41.85333023480595, -87.64800350216731)",CHICAGO,IL,60608
2615132,6011 S Rockwell AVE,41.7840433,-87.6883007,"(41.7840433,-87.6883007)",CHICAGO,IL,60629
2618999,5304 MADISON,41.8804155,-87.7580221,"(41.8804155,-87.7580221)",CHICAGO,IL,60644
2619037,1601 PAYNE,42.0571616,-87.694595,"(42.0571616,-87.694595)",EVANSTON,IL,60201
2612338,5255 S State ST,41.7995035,-87.625015,"(41.7995035,-87.625015)",CHICAGO,IL,60609
2624386,6657 S Kimbark AVE,41.7737472,-87.5940266,"(41.7737472,-87.5940266)",CHICAGO,IL,60637
2615452,1011 S DELANO CT,41.8696351,-87.6327347,"(41.8696351,-87.6327347)",CHICAGO,IL,60605
2615416,1011 S DELANO CT,41.8696351,-87.6327347,"(41.8696351,-87.6327347)",CHICAGO,IL,60605
2578160,1617 CLARKSON CT,41.7396406,-88.0987288,"(41.7396406,-88.0987288)",NAPERVILLE,IL,60565
2610366,2009 S LAFIN ST,41.8548352,-87.6635321,"(41.8548352,-87.6635321)",CHICAGO,IL,60608
2610422,2009 S LAFIN ST,41.8548352,-87.6635321,"(41.8548352,-87.6635321)",CHICAGO,IL,60608
2612278,1011 S DELANO CT,41.8696351,-87.6327347,"(41.8696351,-87.6327347)",CHICAGO,IL,60605
2623378,324 W JACKSON BLVD,41.8782034961044,-87.63594035379518,"(41.8782034961044, -87.63594035379518)",CHICAGO,IL,60606
1326900,6634 W RAVEN ST,41.9946144,-87.7926097,"(41.9946144,-87.7926097)",CHICAGO,IL,60631
1227223,6011 S Rockwell AVE,41.7840433,-87.6883007,"(41.7840433,-87.6883007)",CHICAGO,IL,60629
2617103,135 N KEDZIE AVE,41.88390509704504,-87.70605925083947,"(41.88390509704504, -87.70605925083947)",CHICAGO,IL,60612
2588536,1200 S JEAN BAPTISTE POINTE DUSABLE DR,41.8703314,-87.62357420000001,"(41.8703314,-87.62357420000001)",CHICAGO,IL,60605
2588523,1200 S JEAN BAPTISTE POINTE DUSABLE DR,41.8703314,-87.62357420000001,"(41.8703314,-87.62357420000001)",CHICAGO,IL,60605
2588186,5900 N Nina AVE,41.9890858,-87.8026557,"(41.9890858,-87.8026557)",CHICAGO,IL,60631
2587784,6040 N Kilpatrick AVE,41.9912004,-87.7464722,"(41.9912004,-87.7464722)",CHICAGO,IL,60646
2612279,1011 S DELANO CT,41.8696351,-87.6327347,"(41.8696351,-87.6327347)",CHICAGO,IL,60605
2604666,171 N GREEN ST,41.88516541867304,-87.64847951590394,"(41.88516541867304, -87.64847951590394)",CHICAGO,IL,60607
2603891,754 W GARFIELD,41.79441531175851,-87.6448915555911,"(41.79441531175851, -87.6448915555911)",CHICAGO,IL,60609
2591353,1200 S JEAN BAPTISTE POINTE DUSABLE DR,41.8703314,-87.62357420000001,"(41.8703314,-87.62357420000001)",CHICAGO,IL,60605
2586016,7037 S Rhodes AVE,41.7666885,-87.6113124,"(41.7666885,-87.6113124)",CHICAGO,IL,60637
2561959,1010 S DELANO CT,41.8682202,-87.6328072,"(41.8682202,-87.6328072)",CHICAGO,IL,60605
2574460,838 W KINZIE ST,41.88913510926819,-87.64905166297672,"(41.88913510926819, -87.64905166297672)",CHICAGO,IL,60642
2564901,2046 E GRAND AVE,41.8920432,-87.6108253,"(41.8920432,-87.6108253)",CHICAGO,IL,60611
2564271,3424 S State ST,41.8321532,-87.6272509,"(41.8321532,-87.6272509)",CHICAGO,IL,60616
2563480,2332 S Western,41.849557,-87.68695629999999,"(41.849557,-87.68695629999999)",CHICAGO,IL,60608
2569479,13100 S Doty,41.6755502,-87.6017907,"(41.6755502,-87.6017907)",CHICAGO,IL,60827
2562418,545 W 31ST,41.8379944,-87.6407205,"(41.8379944,-87.6407205)",CHICAGO,IL,60616
2544604,7037 S Rhodes AVE,41.7666885,-87.6113124,"(41.7666885,-87.6113124)",CHICAGO,IL,60637
2576244,1400 S JEAN BAPTISTE POINTE DUSABLE LAKESHORE DR,41.8694024,-87.6173583,"(41.8694024,-87.6173583)",CHICAGO,IL,60605
2562554,1601 PAYNE ST,42.0571616,-87.694595,"(42.0571616,-87.694595)",EVANSTON,IL,60201
2562937,6833 W ROOSEVELT RD,41.8649404,-87.7954463,"(41.8649404,-87.7954463)",BERWYN,IL,60402
2531617,5516 S Maplewood AVE,41.7928811,-87.6882064,"(41.7928811,-87.6882064)",CHICAGO,IL,60629
2528846,545 W 31ST,41.8379944,-87.6407205,"(41.8379944,-87.6407205)",CHICAGO,IL,60616
2456693,3355 S DR. MARTIN LUTHER KING DR,41.833293768956864,-87.6168573403182,"(41.833293768956864, -87.6168573403182)",CHICAGO,IL,60616
2463837,1438 W CORTLAND ST,41.916996072966775,-87.6645967198223,"(41.916996072966775, -87.6645967198223)",CHICAGO,IL,60642
2311667,1010 S DELANO CT,41.8682202,-87.6328072,"(41.8682202,-87.6328072)",CHICAGO,IL,60605
2456698,6650 S Ellis AVE,41.7742214,-87.6012716,"(41.7742214,-87.6012716)",CHICAGO,IL,60637
2345638,2009 S LAFIN ST,41.8548352,-87.6635321,"(41.8548352,-87.6635321)",CHICAGO,IL,60608
2312470,5516 S Maplewood AVE,41.7928811,-87.6882064,"(41.7928811,-87.6882064)",CHICAGO,IL,60629
2312357,1010 S DELANO CT,41.8682202,-87.6328072,"(41.8682202,-87.6328072)",CHICAGO,IL,60605
2252671,6040 N Kilpatrick AVE,41.9912004,-87.7464722,"(41.9912004,-87.7464722)",CHICAGO,IL,60646
2522760,3838 W 49TH ST,41.8043798,-87.7204015,"(41.8043798,-87.7204015)",CHICAGO,IL,60632
2593910,1471 W SUPERIOR ST,41.89507989142611,-87.66514210805768,"(41.89507989142611, -87.66514210805768)",CHICAGO,IL,60642
2269123,800 GREENLEAF,42.075282,-87.699284,"(42.075282,-87.699284)",WILMETTE,IL,60091
2240887,8125 S HALSTED ST,41.74623627171974,-87.64376603783273,"(41.74623627171974, -87.64376603783273)",CHICAGO,IL,60620
2590489,25926 PASTORAL DR,41.6464905,-88.2505818,"(41.6464905,-88.2505818)",PLAINFIELD,IL,60585
2230020,5516 S Maplewood AVE,41.7928811,-87.6882064,"(41.7928811,-87.6882064)",CHICAGO,IL,60629
2232897,7141 S Morgan ST,41.7636974,-87.6486262,"(41.7636974,-87.6486262)",CHICAGO,IL,60621
2182194,617 CENTRAL AVE,42.1856322,-87.8005799,"(42.1856322,-87.8005799)",HIGHLAND PARK,IL,60035
2185039,25553 WOLFS CROSSING RD,41.6985586,-88.2440551,"(41.6985586,-88.2440551)",PLAINFIELD,IL,60585
2531591,5630 S Rockwell AVE,41.79098279999999,-87.6895972,"(41.79098279999999,-87.6895972)",CHICAGO,IL,60629
2184549,617 CENTRAL AVE,42.1856322,-87.8005799,"(42.1856322,-87.8005799)",HIGHLAND PARK,IL,60035
2565692,100-108 W GERMANIA PL,41.91048443655356,-87.63168311419044,"(41.91048443655356, -87.63168311419044)",CHICAGO,IL,60610
2181919,1509 SIBLEY BLVD,41.6226995,-87.562008,"(41.6226995,-87.562008)",CALUMET CITY,IL,60409
2116429,500 N MILWAUKEE AVE,41.89114627169734,-87.64777460811625,"(41.89114627169734, -87.64777460811625)",CHICAGO,IL,60642
2166749,5350 W 38TH ST,41.823776,-87.7573204,"(41.823776,-87.7573204)",CICERO,IL,60804
2159390,2332 S Western,41.849557,-87.68695629999999,"(41.849557,-87.68695629999999)",CHICAGO,IL,60608
2116250,1460 N KINGSBURY ST,41.907542938729264,-87.6515037774827,"(41.907542938729264, -87.6515037774827)",CHICAGO,IL,60642
2060158,108 W PARK,41.8992927,-87.9405057,"(41.8992927,-87.9405057)",ELMHURST,IL,60126
1990142,950 ESTES CT,42.0027309,-88.1025879,"(42.0027309,-88.1025879)",SCHAUMBURG,IL,60193
2009305,4934 S Wabash BLDG,41.8046515,-87.62550949999999,"(41.8046515,-87.62550949999999)",CHICAGO,IL,60615
1982709,3410 MAIN ST,42.0337316,-87.7138039,"(42.0337316,-87.7138039)",SKOKIE,IL,60076
1970632,950 ESTES CT,42.0027309,-88.1025879,"(42.0027309,-88.1025879)",SCHAUMBURG,IL,60193
1981958,950 ESTES CT,42.0027309,-88.1025879,"(42.0027309,-88.1025879)",SCHAUMBURG,IL,60193
1948723,627 ESTES AVE,42.0027986,-88.0962071,"(42.0027986,-88.0962071)",SCHAUMBURG,IL,60193
1751919,1020 W DEVON,41.9927051,-87.9994831,"(41.9927051,-87.9994831)",ELK GROVE VILLAGE,IL,60007
1931904,6237 S HALSTED PKWY,41.7804872,-87.6422731,"(41.7804872,-87.6422731)",CHICAGO,IL,60621
1633072,2936 W 85TH PL,41.7376459,-87.719391,"(41.7376459,-87.719391)",CHICAGO,IL,60652
1966284,2425 E 71ST ST,41.7660867,-87.5653021,"(41.7660867,-87.5653021)",CHICAGO,IL,60649
2571519,1223 N ROSSELL,41.9076607,-87.786107,"(41.9076607,-87.786107)",OAK PARK,IL,60302
1632217,2332 S Western,41.849557,-87.68695629999999,"(41.849557,-87.68695629999999)",CHICAGO,IL,60608
2103209,7037 S Rhodes AVE,41.7666885,-87.6113124,"(41.7666885,-87.6113124)",CHICAGO,IL,60637
1575717,7911 S WOODS BLDG,41.7499336,-87.668015,"(41.7499336,-87.668015)",CHICAGO,IL,60620
1559989,1017 S DELANO CT,41.8682202,-87.6328072,"(41.8682202,-87.6328072)",CHICAGO,IL,60605
1516357,2936 W 85TH PL,41.7376459,-87.719391,"(41.7376459,-87.719391)",CHICAGO,IL,60652
